,Accident,Latitude,Longitude,Date,Time,Address,Route,Log_Mile,City,Event,Conditions,EventBefore,ConditionBefore,Hour,Temperature,Temp_Max,Temp_Min,Monthly_Avg_Temp,Daily_Avg_Temp,Relative_Temp,Dewpoint,Humidity,Month,Weekday,Visibility,Cloud_Coverage,Precipitation_Type,Precipitation_Intensity,Precip_Intensity_Max,Precip_Intensity_Time,Clear,Cloudy,Rain,Fog,Snow,RainBefore,Terrain,Land_Use,Access_Control,Illumination,Operation,Speed_Limit,Thru_Lanes,Num_Lanes,Ad_Sys,Gov_Cont,Func_Class,AADT,DHV,Pavement_Width,Pavement_Type
0,,35.179926,-85.229024,2018-11-16,2:38:08,1005 Tsatanuga Rd,330D016001,0.049,HAMILTON COUNTY,cloudy,Overcast,clear-night,Clear,2,33.29,53.98,28.6,,,,26.47,0.76,11,4,7.18,0.48,,0.0,0.0,-1000,0,1,0,0,0,0,2.0,7.0,0.0,,2.0,25.0,2.0,2.0,11.0,2.0,19.0,,,18.0,6.0
1,,35.101727000000004,-85.053485,2018-11-16,4:30:38,1300 INTERSTATE 75 SB,33I0075001,12.992,CHATTANOOGA,partly-cloudy-night,Partly Cloudy,clear-night,Clear,4,30.9,53.92,29.34,,,,27.14,0.86,11,4,6.94,0.42,,0.0,0.0,-1000,0,1,0,0,0,0,2.0,0.0,2.0,0.0,2.0,65.0,4.0,4.0,2.0,1.0,11.0,62350.0,9.0,24.0,15.0
2,,35.157345,-85.21633100000003,2018-11-16,8:50:35,6300 MIDDLE VALLEY RD,330C985001,0.002,CHATTANOOGA,partly-cloudy-day,Partly Cloudy,clear-night,Clear,8,30.11,54.25,28.85,,,,27.95,0.92,11,4,5.51,0.48,,0.0,0.0,-1000,0,1,0,0,0,0,2.0,7.0,0.0,,2.0,30.0,1.0,1.0,12.0,4.0,19.0,,,12.0,15.0
3,,35.133625,-85.120953,2018-11-16,6:02:56,6598 HIGHWAY 58,33SR058001,11.004,HAMILTON COUNTY,partly-cloudy-night,Partly Cloudy,clear-night,Clear,6,29.81,54.0,29.13,,,,26.97,0.89,11,4,7.17,0.45,,0.0,0.0,-1000,0,1,0,0,0,0,2.0,0.0,0.0,0.0,2.0,55.0,4.0,4.0,13.0,1.0,14.0,15600.0,12.0,24.0,15.0
4,,35.124471,-85.238114,2018-11-16,0:28:13,2051 Hamill Rd,330E890001,0.059,CHATTANOOGA,rain,Rain,cloudy,Overcast,0,43.42,43.99,33.21,,,,41.05,0.91,11,4,2.71,0.98,rain,0.03,0.145,1542261600,0,0,1,0,0,0,2.0,2.0,0.0,1.0,2.0,15.0,2.0,2.0,12.0,4.0,19.0,,,20.0,15.0
5,,35.041422999999995,-85.278851,2018-11-16,6:29:02,300 - 399 N Highland Park Ave,330A707001,0.289,CHATTANOOGA,clear-night,Clear,fog,Foggy,6,29.76,54.25,29.0,,,,27.05,0.89,11,4,5.93,0.52,,0.0,0.0,-1000,1,0,0,0,0,0,2.0,7.0,0.0,1.0,2.0,,2.0,2.0,12.0,4.0,19.0,,,30.0,15.0
6,,35.124471,-85.238114,2018-11-16,18:29:29,2051 Hamill Rd,330E890001,0.059,CHATTANOOGA,partly-cloudy-night,Mostly Cloudy,clear-night,Clear,18,49.21,54.15,28.85,,,,38.03,0.65,11,4,7.09,0.49,,0.0,0.0,-1000,0,1,0,0,0,0,2.0,2.0,0.0,1.0,2.0,15.0,2.0,2.0,12.0,4.0,19.0,,,20.0,15.0
7,,35.074622999999995,-85.11891899999998,2018-11-16,6:50:43,8010-8979 VOLKSWAGEN DR,3305747001,1.997,CHATTANOOGA,clear-night,Clear,clear-night,Clear,6,29.17,53.25,28.69,,,,27.05,0.92,11,4,6.57,0.45,,0.0,0.0,-1000,1,0,0,0,0,0,2.0,0.0,0.0,0.0,2.0,50.0,4.0,4.0,18.0,4.0,17.0,10600.0,15.0,24.0,15.0
8,,35.0,-85.126416,2018-11-16,0:56:11,211 Brently Woods Dr,330F391001,0.221,HAMILTON COUNTY,rain,Rain,cloudy,Overcast,0,43.75,43.75,32.43,,,,42.25,0.94,11,4,2.67,0.99,rain,0.0285,0.1302,1542261600,0,0,1,0,0,0,2.0,7.0,0.0,1.0,2.0,20.0,2.0,2.0,11.0,2.0,19.0,,,26.0,15.0
9,,35.074982,-85.323038,2018-11-16,19:58:43,1056 W ELMWOOD DR,330A009001,0.866,CHATTANOOGA,partly-cloudy-night,Partly Cloudy,fog,Foggy,19,45.75,53.86,28.47,,,,37.89,0.74,11,4,6.76,0.52,,0.0,0.0,-1000,0,1,0,0,0,0,2.0,7.0,0.0,1.0,2.0,25.0,2.0,2.0,12.0,4.0,19.0,,,20.0,15.0
10,,35.082937,-85.078216,2018-11-16,23:06:52,1100 Interstate 75 Sb,33I0075001,10.956,CHATTANOOGA,clear-night,Clear,clear-night,Clear,23,37.53,53.71,29.18,,,,34.89,0.9,11,4,3.36,0.43,,0.0,0.0,-1000,1,0,0,0,0,0,2.0,0.0,2.0,0.0,2.0,65.0,8.0,8.0,2.0,1.0,11.0,62800.0,9.0,48.0,18.0
11,,35.062351,-85.01265,2018-11-16,8:09:37,5105 Mcdonald Rd,330D952001,2.485,HAMILTON COUNTY,clear-day,Clear,clear-night,Clear,8,29.4,53.26,28.95,,,,27.52,0.93,11,4,5.38,0.4,,0.0,0.0,-1000,1,0,0,0,0,0,2.0,0.0,0.0,,2.0,35.0,2.0,2.0,11.0,2.0,19.0,,,18.0,15.0
12,,35.177257,-85.370378,2018-11-16,12:18:42,"35°10'38.13""n / 085°22'13.36""w",770C569001,0.0,,partly-cloudy-day,Mostly Cloudy,partly-cloudy-night,Partly Cloudy,12,45.13,50.35,24.82,,,,32.51,0.61,11,4,5.74,0.52,,0.0,0.0,-1000,0,1,0,0,0,0,,,,,,,,,,,,,,,
13,,35.226137,-85.1532,2018-11-16,4:20:39,9250-9299 Dallas Hollow Rd,3301126001,1.683,HAMILTON COUNTY,partly-cloudy-night,Partly Cloudy,clear-night,Clear,4,30.82,53.15,28.19,,,,27.17,0.86,11,4,10.0,0.44,,0.0,0.0,-1000,0,1,0,0,0,0,2.0,0.0,0.0,,2.0,45.0,2.0,2.0,18.0,2.0,16.0,7750.0,12.0,24.0,15.0
14,,35.083977000000004,-85.317611,2018-11-16,12:26:18,Dayton Blvd / Signal Mountain Rd,33SR008001,11.962,RED BANK,partly-cloudy-day,Mostly Cloudy,fog,Foggy,12,44.56,54.07,28.69,,,,30.86,0.58,11,4,6.77,0.52,,0.0,0.0,-1000,0,1,0,0,0,0,2.0,2.0,0.0,1.0,2.0,40.0,4.0,4.0,21.0,1.0,16.0,15570.0,11.0,22.0,15.0
15,,35.226137,-85.1532,2018-11-16,19:30:07,9250-9299 Dallas Hollow Rd,3301126001,1.683,HAMILTON COUNTY,partly-cloudy-night,Partly Cloudy,clear-night,Clear,19,43.61,53.15,28.19,,,,38.05,0.81,11,4,10.0,0.44,,0.0,0.0,-1000,0,1,0,0,0,0,2.0,0.0,0.0,,2.0,45.0,2.0,2.0,18.0,2.0,16.0,7750.0,12.0,24.0,15.0
16,,35.222725,-85.155652,2018-11-16,10:31:44,9200 Dallas Hollow Rd,3301126001,1.405,HAMILTON COUNTY,partly-cloudy-day,Partly Cloudy,clear-night,Clear,10,36.57,53.24,28.27,,,,28.27,0.72,11,4,10.0,0.44,,0.0,0.0,-1000,0,1,0,0,0,0,2.0,0.0,0.0,,2.0,45.0,2.0,2.0,18.0,2.0,16.0,7750.0,12.0,24.0,15.0
17,,35.116785,-85.042703,2018-11-16,18:37:14,7200 SYLAR RD,330E198001,0.123,HAMILTON COUNTY,partly-cloudy-night,Partly Cloudy,clear-night,Clear,18,48.16,53.68,29.17,,,,37.75,0.67,11,4,7.43,0.41,,0.0,0.0,-1000,0,1,0,0,0,0,2.0,0.0,0.0,,2.0,,2.0,2.0,11.0,2.0,19.0,,,20.0,15.0
18,,35.109026,-85.22931700000002,2018-11-16,4:47:56,700 HIGHWAY 153 SB,3303542001,1.797,CHATTANOOGA,partly-cloudy-night,Partly Cloudy,clear-night,Clear,4,30.46,53.98,28.68,,,,27.17,0.87,11,4,6.71,0.5,,0.0,0.0,-1000,0,1,0,0,0,0,2.0,9.0,0.0,1.0,2.0,50.0,3.0,3.0,18.0,4.0,16.0,8620.0,13.0,36.0,15.0
19,,35.044933,-85.052799,2018-11-16,11:03:22,4800 University Dr,330E022001,0.002,COLLEGEDALE,clear-day,Clear,clear-night,Clear,11,40.12,53.46,29.07,,,,29.78,0.66,11,4,6.64,0.42,,0.0,0.0,-1000,1,0,0,0,0,0,2.0,7.0,0.0,,2.0,,2.0,2.0,12.0,4.0,19.0,,,20.0,15.0
20,,35.110248,-85.046743,2018-11-16,19:04:46,Ooltewah Georgetown Rd / Sylar Rd,3301145001,4.8660000000000005,HAMILTON COUNTY,clear-night,Clear,clear-night,Clear,19,44.1,53.76,29.26,,,,37.86,0.79,11,4,7.37,0.41,,0.0,0.0,-1000,1,0,0,0,0,0,2.0,0.0,0.0,,2.0,50.0,2.0,2.0,18.0,2.0,16.0,5580.0,11.0,24.0,15.0
21,,35.169585,-85.075715,2018-11-16,14:21:00,8634 Highway 58,33SR058001,14.838,HAMILTON COUNTY,partly-cloudy-day,Partly Cloudy,clear-night,Clear,14,50.56,53.64,28.93,,,,32.64,0.5,11,4,10.0,0.43,,0.0,0.0,-1000,0,1,0,0,0,0,2.0,0.0,0.0,0.0,2.0,55.0,4.0,4.0,13.0,1.0,14.0,13640.0,12.0,24.0,15.0
22,,35.044088,-85.160208,2018-11-16,3:22:38,7000 SHALLOWFORD RD,3303580001,1.915,CHATTANOOGA,partly-cloudy-night,Mostly Cloudy,clear-night,Clear,3,32.0,54.16,29.6,,,,26.94,0.81,11,4,5.9,0.46,,0.0,0.0,-1000,0,1,0,0,0,0,2.0,2.0,2.0,1.0,2.0,45.0,4.0,4.0,18.0,4.0,14.0,25210.0,12.0,24.0,15.0
23,,35.211817,-85.216178,2018-11-16,20:26:08,376 - 399 Thrasher Pike,3300951001,0.124,SODDY DAISY,partly-cloudy-night,Partly Cloudy,clear-night,Clear,20,42.79,54.07,28.7,,,,37.47,0.81,11,4,7.53,0.47,,0.0,0.0,-1000,0,1,0,0,0,0,2.0,0.0,0.0,0.0,2.0,35.0,2.0,2.0,18.0,4.0,16.0,6570.0,13.0,12.0,15.0
24,,35.20627800000001,-85.215239,2018-11-16,18:33:11,400 Thrasher Pike,3300951001,0.584,SODDY DAISY,partly-cloudy-night,Partly Cloudy,clear-night,Clear,18,48.24,53.89,28.52,,,,38.05,0.68,11,4,7.49,0.47,,0.0,0.0,-1000,0,1,0,0,0,0,2.0,0.0,0.0,0.0,2.0,35.0,2.0,2.0,18.0,4.0,16.0,6570.0,13.0,20.0,15.0
25,,34.997678,-85.095315,2018-11-16,11:34:54,1700 OOLTEWAH RINGGOLD RD,33SR321001,0.779,HAMILTON COUNTY,clear-day,Clear,clear-night,Clear,11,40.39,53.83,29.36,,,,29.7,0.65,11,4,5.9,0.43,,0.0,0.0,-1000,1,0,0,0,0,0,2.0,7.0,0.0,0.0,2.0,40.0,2.0,2.0,21.0,1.0,16.0,8650.0,11.0,11.0,15.0
26,,35.044088,-85.160208,2018-11-16,1:39:25,7000 SHALLOWFORD RD,3303580001,1.915,CHATTANOOGA,cloudy,Overcast,clear-night,Clear,1,32.58,54.16,29.6,,,,26.61,0.78,11,4,5.74,0.46,,0.0,0.0,-1000,0,1,0,0,0,0,2.0,2.0,2.0,1.0,2.0,45.0,4.0,4.0,18.0,4.0,14.0,25210.0,12.0,24.0,15.0
27,,35.045852000000004,-85.152462,2018-11-16,2:39:25,1 - 9 Exit 5 Off Ramp Sb,33I0075001,5.947,CHATTANOOGA,cloudy,Overcast,clear-night,Clear,2,32.95,54.1,29.55,,,,26.83,0.78,11,4,5.74,0.46,,0.0,0.0,-1000,0,1,0,0,0,0,2.0,4.0,2.0,0.0,2.0,55.0,8.0,9.0,2.0,1.0,11.0,79990.0,11.0,48.0,18.0
28,,35.105449,-85.05176800000002,2018-11-16,1:43:24,14400 Interstate 75 Sb,33I0075001,13.268,CHATTANOOGA,cloudy,Overcast,clear-night,Clear,1,32.57,53.9,29.32,,,,26.69,0.79,11,4,6.97,0.42,,0.0,0.0,-1000,0,1,0,0,0,0,2.0,0.0,2.0,0.0,2.0,65.0,4.0,4.0,2.0,1.0,11.0,62350.0,9.0,24.0,15.0
29,,35.114959000000006,-85.047337,2018-11-16,8:46:52,1400 Interstate 75 Sb,33I0075001,13.97,HAMILTON COUNTY,clear-day,Clear,clear-night,Clear,8,29.87,53.79,29.27,,,,27.55,0.91,11,4,5.61,0.41,,0.0,0.0,-1000,1,0,0,0,0,0,2.0,0.0,2.0,0.0,2.0,65.0,4.0,4.0,2.0,1.0,11.0,62350.0,9.0,24.0,15.0
30,,35.016682,-85.314433,2018-11-16,8:18:37,3217 Alton Park Blvd,33SR058001,3.462,CHATTANOOGA,partly-cloudy-day,Partly Cloudy,fog,Foggy,8,29.84,54.28,29.03,,,,27.09,0.89,11,4,2.62,0.54,,0.0,0.0,-1000,0,1,0,0,0,0,2.0,5.0,0.0,1.0,2.0,35.0,2.0,2.0,21.0,1.0,16.0,10190.0,11.0,12.0,15.0
31,,35.036034,-85.311672,2018-11-16,13:18:47,1616 Broad St,330A634001,0.155,CHATTANOOGA,partly-cloudy-day,Mostly Cloudy,fog,Foggy,13,48.79,54.23,28.97,,,,32.47,0.53,11,4,2.07,0.54,,0.0,0.0,-1000,0,1,0,0,0,0,2.0,4.0,0.0,1.0,2.0,,2.0,2.0,12.0,4.0,19.0,,,24.0,15.0
32,,35.037964,-85.245478,2018-11-16,11:32:13,800 MOSS ST,3303613001,1.295,CHATTANOOGA,clear-day,Clear,clear-night,Clear,11,40.18,53.68,28.51,,,,29.96,0.67,11,4,6.3,0.49,,0.0,0.0,-1000,1,0,0,0,0,0,3.0,7.0,0.0,1.0,2.0,30.0,2.0,2.0,18.0,4.0,16.0,6620.0,14.0,23.0,15.0
33,,35.236628,-85.197958,2018-11-16,21:32:49,137 Harrison Ln,3305744001,0.071,SODDY DAISY,partly-cloudy-night,Partly Cloudy,clear-night,Clear,21,39.04,53.63,28.42,,,,36.34,0.9,11,4,9.37,0.46,,0.0,0.0,-1000,0,1,0,0,0,0,2.0,2.0,0.0,1.0,2.0,35.0,2.0,2.0,18.0,4.0,16.0,7310.0,11.0,12.0,15.0
34,,35.036411,-85.15146999999997,2018-11-16,6:39:51,2128 Gunbarrel Rd,330F888001,0.306,CHATTANOOGA,clear-night,Clear,clear-night,Clear,6,29.79,54.07,29.53,,,,27.09,0.89,11,4,5.86,0.46,,0.0,0.0,-1000,1,0,0,0,0,0,2.0,2.0,0.0,1.0,2.0,,2.0,4.0,12.0,4.0,19.0,,,24.0,15.0
35,,35.087713,-85.071062,2018-11-16,19:45:46,5900 MOUNTAIN VIEW RD,3302205001,6.11,HAMILTON COUNTY,partly-cloudy-night,Partly Cloudy,clear-night,Clear,19,44.29,53.74,29.21,,,,37.92,0.78,11,4,6.98,0.43,,0.0,0.0,-1000,0,1,0,0,0,0,,,,,,,,,,,,3390.0,11.0,,
36,,35.087633000000004,-85.07005699999998,2018-11-16,0:47:14,8935 Lee Hwy,3302205001,6.149,CHATTANOOGA,rain,Rain,cloudy,Overcast,0,43.59,43.83,32.59,,,,42.18,0.95,11,4,3.22,0.99,rain,0.031,0.1352,1542268800,0,0,1,0,0,0,2.0,2.0,0.0,,2.0,40.0,4.0,4.0,18.0,4.0,16.0,3390.0,11.0,24.0,15.0
37,,35.087713,-85.071062,2018-11-16,23:49:45,5900 - 5999 Mountain View Rd,3302205001,6.11,HAMILTON COUNTY,clear-night,Clear,clear-night,Clear,23,37.51,53.74,29.21,,,,34.87,0.9,11,4,3.42,0.43,,0.0,0.0,-1000,1,0,0,0,0,0,,,,,,,,,,,,3390.0,11.0,,
38,,34.987886,-85.270544,2018-11-16,4:15:16,1722 John Ross Rd,3303576001,1.426,EAST RIDGE,partly-cloudy-night,Partly Cloudy,clear-night,Clear,4,30.06,53.47,28.35,,,,27.16,0.89,11,4,5.54,0.49,,0.0,0.0,-1000,0,1,0,0,0,0,2.0,7.0,0.0,1.0,2.0,30.0,2.0,2.0,18.0,4.0,16.0,4350.0,13.0,24.0,15.0
39,,35.152975,-85.24562,2018-11-16,14:19:36,5764 Highway 153,3304428001,0.8909999999999999,CHATTANOOGA,partly-cloudy-day,Mostly Cloudy,clear-night,Clear,14,51.28,54.07,28.69,,,,32.76,0.49,11,4,7.11,0.49,,0.0,0.0,-1000,0,1,0,0,0,0,2.0,0.0,0.0,1.0,2.0,35.0,2.0,2.0,18.0,4.0,17.0,4500.0,12.0,24.0,15.0
40,,35.046742,-85.15486700000002,2018-11-16,0:24:41,7051 Mccutcheon Rd,330E509001,0.5760000000000001,CHATTANOOGA,rain,Rain,cloudy,Overcast,0,44.09,44.09,32.93,,,,42.06,0.93,11,4,2.75,0.99,rain,0.0292,0.1353,1542261600,0,0,1,0,0,0,2.0,7.0,0.0,1.0,2.0,25.0,2.0,2.0,12.0,4.0,19.0,,,18.0,15.0
41,,34.987886,-85.270544,2018-11-16,8:24:56,1722 John Ross Rd,3303576001,1.426,EAST RIDGE,partly-cloudy-day,Partly Cloudy,clear-night,Clear,8,29.1,53.47,28.35,,,,27.51,0.94,11,4,4.85,0.49,,0.0,0.0,-1000,0,1,0,0,0,0,2.0,7.0,0.0,1.0,2.0,30.0,2.0,2.0,18.0,4.0,16.0,4350.0,13.0,24.0,15.0
42,,35.073807,-85.111622,2018-11-16,10:39:46,900 INTERSTATE 75 NB,33I0075001,8.969,CHATTANOOGA,partly-cloudy-day,Partly Cloudy,clear-night,Clear,10,36.32,53.2,28.65,,,,28.89,0.74,11,4,6.73,0.44,,0.0,0.0,-1000,0,1,0,0,0,0,2.0,0.0,2.0,1.0,2.0,65.0,8.0,10.0,2.0,1.0,11.0,74310.0,0.0,48.0,18.0
43,,35.034528,-85.15870600000002,2018-11-16,21:50:39,2100 Hamilton Place Blvd,3304986001,1.464,CHATTANOOGA,partly-cloudy-night,Partly Cloudy,clear-night,Clear,21,41.16,54.14,29.59,,,,36.48,0.83,11,4,4.8,0.46,,0.0,0.0,-1000,0,1,0,0,0,0,2.0,2.0,0.0,1.0,2.0,35.0,3.0,3.0,18.0,4.0,17.0,5180.0,13.0,24.0,15.0
44,,35.047692,-85.31089399999998,2018-11-16,16:34:00,721 Broad St,3303561001,0.136,CHATTANOOGA,partly-cloudy-day,Partly Cloudy,fog,Foggy,16,54.12,54.12,28.86,,,,34.52,0.47,11,4,5.52,0.52,,0.0,0.0,-1000,0,1,0,0,0,0,2.0,2.0,0.0,1.0,2.0,30.0,6.0,6.0,18.0,4.0,16.0,9160.0,13.0,36.0,15.0
45,,35.037585,-85.24587700000002,2018-11-16,16:03:15,Moss St / Shallowford Rd,3303613001,1.265,CHATTANOOGA,partly-cloudy-day,Partly Cloudy,clear-night,Clear,16,53.67,53.67,28.5,,,,34.62,0.48,11,4,5.8,0.49,,0.0,0.0,-1000,0,1,0,0,0,0,3.0,7.0,0.0,1.0,2.0,30.0,2.0,2.0,18.0,4.0,16.0,6620.0,14.0,23.0,15.0
46,,35.046378999999995,-85.263663,2018-11-16,13:21:20,909 DODSON AVE,33SR017001,4.3210000000000015,CHATTANOOGA,partly-cloudy-day,Mostly Cloudy,fog,Foggy,13,48.58,54.01,28.76,,,,32.45,0.53,11,4,5.72,0.51,,0.0,0.0,-1000,0,1,0,0,0,0,2.0,2.0,0.0,1.0,2.0,30.0,2.0,2.0,13.0,1.0,16.0,8710.0,11.0,20.0,15.0
47,,35.08906,-85.21978100000003,2018-11-16,8:22:47,4198 S ACCESS RD,330D462001,0.011,CHATTANOOGA,partly-cloudy-day,Partly Cloudy,fog,Foggy,8,29.73,54.04,28.78,,,,27.68,0.92,11,4,2.78,0.5,,0.0,0.0,-1000,0,1,0,0,0,0,2.0,2.0,0.0,1.0,2.0,40.0,2.0,2.0,12.0,4.0,19.0,,,24.0,15.0
48,,35.046324,-85.26335999999998,2018-11-16,15:23:22,Dodson Ave / Milne St,33SR017001,4.3210000000000015,CHATTANOOGA,partly-cloudy-day,Mostly Cloudy,fog,Foggy,15,53.31,54.0,28.75,,,,33.97,0.48,11,4,5.63,0.51,,0.0,0.0,-1000,0,1,0,0,0,0,2.0,2.0,0.0,1.0,2.0,30.0,2.0,2.0,13.0,1.0,16.0,8710.0,11.0,20.0,15.0
49,,35.0928,-85.33091800000003,2018-11-16,18:30:26,463 Signal Mountain Rd,33SR008001,13.059,CHATTANOOGA,partly-cloudy-night,Mostly Cloudy,fog,Foggy,18,49.55,54.16,28.79,,,,37.73,0.64,11,4,2.99,0.54,,0.0,0.0,-1000,0,1,0,0,0,0,2.0,2.0,0.0,1.0,2.0,45.0,6.0,6.0,13.0,1.0,14.0,27860.0,11.0,36.0,15.0
50,,35.026624,-85.191644,2018-11-16,19:31:35,6006-6099 Lee Hwy,33SR002001,16.317,CHATTANOOGA,partly-cloudy-night,Partly Cloudy,clear-night,Clear,19,45.34,54.26,29.67,,,,38.03,0.75,11,4,5.92,0.47,,0.0,0.0,-1000,0,1,0,0,0,0,2.0,2.0,0.0,1.0,2.0,40.0,4.0,4.0,13.0,1.0,14.0,24540.0,10.0,24.0,15.0
51,,35.027174,-85.190759,2018-11-16,7:32:05,6100 Lee Hwy,33SR002001,16.38,CHATTANOOGA,clear-night,Clear,clear-night,Clear,7,29.65,54.24,29.65,,,,27.24,0.91,11,4,5.48,0.47,,0.0,0.0,-1000,1,0,0,0,0,0,2.0,2.0,0.0,1.0,2.0,40.0,4.0,4.0,13.0,1.0,14.0,24540.0,10.0,24.0,15.0
52,,35.111024,-85.30318,2018-11-16,23:38:18,3308 Martin Rd,3304020001,0.962,RED BANK,fog,Foggy,fog,Foggy,23,38.11,53.84,28.48,,,,34.83,0.88,11,4,1.91,0.51,,0.0,0.0,-1000,0,0,0,1,0,0,2.0,7.0,0.0,1.0,2.0,25.0,2.0,2.0,18.0,4.0,17.0,1180.0,11.0,18.0,15.0
53,,34.995957000000004,-85.291609,2018-11-16,12:38:47,4103 Rossville Blvd,330A940001,0.185,CHATTANOOGA,partly-cloudy-day,Mostly Cloudy,clear-night,Clear,12,45.11,54.22,29.06,,,,31.01,0.57,11,4,6.14,0.52,,0.0,0.0,-1000,0,1,0,0,0,0,2.0,2.0,0.0,1.0,2.0,30.0,2.0,2.0,12.0,4.0,19.0,,,28.0,15.0
54,,35.018906,-85.240494,2018-11-16,19:39:19,3956 BRAINERD RD,33SR002001,13.005999999999998,CHATTANOOGA,partly-cloudy-night,Partly Cloudy,clear-night,Clear,19,45.18,53.92,28.77,,,,37.85,0.75,11,4,5.78,0.49,,0.0,0.0,-1000,0,1,0,0,0,0,2.0,2.0,0.0,1.0,2.0,35.0,4.0,4.0,13.0,1.0,14.0,27270.0,10.0,22.0,15.0
55,,35.110028,-85.326104,2018-11-16,22:39:57,1005 Mountain Creek Rd,3301147001,0.862,CHATTANOOGA,clear-night,Clear,fog,Foggy,22,39.52,53.8,28.44,,,,35.23,0.84,11,4,2.58,0.52,,0.0,0.0,-1000,1,0,0,0,0,0,3.0,0.0,0.0,0.0,2.0,40.0,2.0,2.0,18.0,2.0,16.0,5680.0,13.0,20.0,15.0
56,,35.014805,-85.161435,2018-11-16,13:42:46,7453 E Brainerd Rd,330E314001,0.06,CHATTANOOGA,partly-cloudy-day,Partly Cloudy,clear-night,Clear,13,48.87,54.15,29.63,,,,32.38,0.53,11,4,5.58,0.46,,0.0,0.0,-1000,0,1,0,0,0,0,2.0,7.0,0.0,1.0,2.0,,2.0,2.0,12.0,4.0,19.0,,,20.0,15.0
57,,35.013797,-85.16131999999998,2018-11-16,10:43:13,7500 E BRAINERD RD,330E314001,0.001,CHATTANOOGA,partly-cloudy-day,Partly Cloudy,clear-night,Clear,10,36.88,54.16,29.64,,,,28.93,0.73,11,4,6.05,0.46,,0.0,0.0,-1000,0,1,0,0,0,0,2.0,7.0,0.0,1.0,2.0,,2.0,2.0,12.0,4.0,19.0,,,20.0,15.0
58,,35.114439000000004,-85.128039,2018-11-16,2:59:16,5934 Highway 58,330D306001,0.049,CHATTANOOGA,cloudy,Overcast,clear-night,Clear,2,32.54,53.72,29.06,,,,26.8,0.79,11,4,6.4,0.45,,0.0,0.0,-1000,0,1,0,0,0,0,2.0,7.0,0.0,,2.0,30.0,2.0,2.0,11.0,2.0,19.0,,,26.0,15.0
59,,35.019164,-85.225163,2018-11-16,13:00:01,503 N Moore Rd,3303578001,1.764,CHATTANOOGA,partly-cloudy-day,Partly Cloudy,clear-night,Clear,13,48.81,54.19,29.06,,,,32.5,0.53,11,4,5.67,0.48,,0.0,0.0,-1000,0,1,0,0,0,0,2.0,7.0,0.0,1.0,2.0,35.0,4.0,4.0,18.0,4.0,16.0,12110.0,11.0,42.0,15.0
60,,35.05227,-85.311782,2018-11-16,14:03:38,200 W 4th St,3303559001,1.003,CHATTANOOGA,partly-cloudy-day,Mostly Cloudy,fog,Foggy,14,51.37,54.14,28.88,,,,32.88,0.49,11,4,6.08,0.52,,0.0,0.0,-1000,0,1,0,0,0,0,2.0,2.0,0.0,1.0,2.0,35.0,4.0,4.0,18.0,4.0,17.0,5480.0,12.0,40.0,15.0
61,,35.137205,-85.243167,2018-11-16,6:04:25,1944 Northpoint Blvd,33SR319001,4.684,CHATTANOOGA,clear-night,Clear,clear-night,Clear,6,29.87,54.19,28.85,,,,27.1,0.89,11,4,7.0,0.49,,0.0,0.0,-1000,1,0,0,0,0,0,2.0,2.0,0.0,1.0,2.0,40.0,4.0,4.0,13.0,1.0,14.0,30820.0,10.0,24.0,15.0
62,,35.035524,-85.161923,2018-11-16,22:21:47,2100 HAMILTON PLACE BLVD,3304986001,1.444,CHATTANOOGA,clear-night,Clear,clear-night,Clear,22,39.52,54.12,29.57,,,,35.42,0.85,11,4,3.26,0.46,,0.0,0.0,-1000,1,0,0,0,0,0,2.0,2.0,0.0,1.0,2.0,35.0,3.0,3.0,18.0,4.0,17.0,5180.0,13.0,24.0,15.0
63,,35.091032,-85.064998,2018-11-16,7:53:50,5958 Snow Hill Rd,3302207001,0.605,CHATTANOOGA,clear-night,Clear,clear-night,Clear,7,29.26,53.79,29.26,,,,27.09,0.91,11,4,6.27,0.42,,0.0,0.0,-1000,1,0,0,0,0,0,2.0,2.0,0.0,,2.0,40.0,2.0,2.0,18.0,2.0,17.0,7520.0,12.0,11.0,15.0
64,,35.055288,-85.283576,2018-11-16,7:09:40,1459 Riverside Dr,3305395001,4.034,CHATTANOOGA,clear-night,Clear,fog,Foggy,7,29.04,54.3,29.04,,,,27.05,0.92,11,4,5.54,0.51,,0.0,0.0,-1000,1,0,0,0,0,0,2.0,5.0,0.0,1.0,2.0,50.0,4.0,4.0,16.0,4.0,14.0,24820.0,12.0,24.0,15.0
65,,35.219437,-85.2253,2018-11-16,23:29:58,8425 Dayton Pike,3302162001,2.491,SODDY DAISY,clear-night,Clear,clear-night,Clear,23,38.01,54.12,28.76,,,,34.0,0.85,11,4,3.91,0.47,,0.0,0.0,-1000,1,0,0,0,0,0,2.0,2.0,0.0,,2.0,40.0,2.0,2.0,18.0,4.0,16.0,8730.0,12.0,24.0,15.0
66,,35.009919000000004,-85.220213,2018-11-16,18:40:23,Brainerd Rd / Spring Creek Rd,33SR002001,14.31,CHATTANOOGA,partly-cloudy-night,Partly Cloudy,clear-night,Clear,18,48.97,54.17,29.06,,,,38.06,0.66,11,4,6.17,0.48,,0.0,0.0,-1000,0,1,0,0,0,0,2.0,2.0,0.0,1.0,2.0,40.0,6.0,6.0,13.0,1.0,14.0,34380.0,11.0,30.0,15.0
67,,35.012467,-85.325098,2018-11-16,8:43:15,Charger Dr / W 37th St,330A838001,0.888,CHATTANOOGA,partly-cloudy-day,Partly Cloudy,fog,Foggy,8,29.78,54.23,28.98,,,,27.08,0.9,11,4,2.68,0.54,,0.0,0.0,-1000,0,1,0,0,0,0,2.0,0.0,0.0,,2.0,,2.0,2.0,12.0,4.0,19.0,,,28.0,15.0
68,,35.027332,-85.34683000000003,2018-11-16,10:45:19,17620 Interstate 24 Eb,33I0024002,5.2570000000000014,CHATTANOOGA,partly-cloudy-day,Mostly Cloudy,fog,Foggy,10,36.75,54.27,29.01,,,,28.34,0.71,11,4,3.39,0.54,,0.0,0.0,-1000,0,1,0,0,0,0,2.0,0.0,2.0,0.0,2.0,65.0,4.0,4.0,2.0,1.0,11.0,72780.0,9.0,24.0,15.0
69,,35.147459000000005,-85.24679,2018-11-16,19:46:47,5422 Towne Hills Ln,330C916001,0.053,CHATTANOOGA,partly-cloudy-night,Partly Cloudy,clear-night,Clear,19,44.88,54.15,28.76,,,,37.98,0.77,11,4,7.07,0.49,,0.0,0.0,-1000,0,1,0,0,0,0,2.0,7.0,0.0,1.0,2.0,,2.0,2.0,12.0,4.0,19.0,,,24.0,15.0
70,,35.026324,-85.36876600000002,2018-11-16,5:52:04,17500 Interstate 24 Eb,33I0024002,3.959,CHATTANOOGA,clear-night,Clear,fog,Foggy,5,30.1,54.16,28.9,,,,27.01,0.88,11,4,2.72,0.54,,0.0,0.0,-1000,1,0,0,0,0,0,2.0,0.0,2.0,0.0,2.0,65.0,4.0,5.0,2.0,1.0,11.0,65300.0,9.0,24.0,15.0
71,,35.051140000000004,-85.29427,2018-11-16,4:01:10,948 SISKIN DR,330A401001,0.163,CHATTANOOGA,partly-cloudy-night,Partly Cloudy,fog,Foggy,4,30.63,54.23,28.98,,,,27.11,0.87,11,4,5.82,0.52,,0.0,0.0,-1000,0,1,0,0,0,0,2.0,0.0,0.0,,2.0,,2.0,2.0,12.0,4.0,19.0,,,30.0,15.0
72,,35.240245,-85.176684,2018-11-16,22:02:32,502 Sequoyah Rd,3301126001,4.06,SODDY DAISY,clear-night,Clear,clear-night,Clear,22,38.1,53.47,28.28,,,,34.54,0.87,11,4,7.0,0.45,,0.0,0.0,-1000,1,0,0,0,0,0,2.0,0.0,0.0,,2.0,45.0,2.0,2.0,18.0,4.0,16.0,12210.0,11.0,12.0,15.0
73,,35.024297,-85.194671,2018-11-16,14:13:48,5950 Lee Hwy,33SR002001,16.084,CHATTANOOGA,partly-cloudy-day,Partly Cloudy,clear-night,Clear,14,51.39,54.15,29.06,,,,33.02,0.49,11,4,5.86,0.47,,0.0,0.0,-1000,0,1,0,0,0,0,2.0,2.0,0.0,1.0,2.0,40.0,4.0,4.0,13.0,1.0,14.0,24540.0,10.0,24.0,15.0
74,,35.024915,-85.19518199999997,2018-11-16,8:13:55,5919 Lee Hwy,330B021001,0.045,CHATTANOOGA,partly-cloudy-day,Partly Cloudy,clear-night,Clear,8,29.87,54.16,29.07,,,,27.67,0.91,11,4,4.84,0.47,,0.0,0.0,-1000,0,1,0,0,0,0,2.0,7.0,0.0,,2.0,,2.0,2.0,12.0,4.0,19.0,,,30.0,15.0
75,,35.024572,-85.194917,2018-11-16,20:14:08,5916-6005 Lee Hwy,33SR002001,16.085,CHATTANOOGA,partly-cloudy-night,Partly Cloudy,clear-night,Clear,20,42.61,54.16,29.06,,,,37.57,0.82,11,4,5.44,0.47,,0.0,0.0,-1000,0,1,0,0,0,0,2.0,2.0,0.0,1.0,2.0,40.0,4.0,4.0,13.0,1.0,14.0,24540.0,10.0,24.0,15.0
76,,35.024915,-85.19518199999997,2018-11-16,14:14:22,5919 Lee Hwy,330B021001,0.045,CHATTANOOGA,partly-cloudy-day,Partly Cloudy,clear-night,Clear,14,51.4,54.16,29.07,,,,33.02,0.49,11,4,5.86,0.47,,0.0,0.0,-1000,0,1,0,0,0,0,2.0,7.0,0.0,,2.0,,2.0,2.0,12.0,4.0,19.0,,,30.0,15.0
77,,35.070413,-85.152652,2018-11-16,7:15:43,6918 Bonny Oaks Dr,33SR317001,3.5010000000000003,CHATTANOOGA,clear-night,Clear,clear-night,Clear,7,29.48,53.98,29.48,,,,27.32,0.92,11,4,5.98,0.46,,0.0,0.0,-1000,1,0,0,0,0,0,2.0,4.0,0.0,1.0,2.0,50.0,2.0,2.0,13.0,1.0,14.0,17080.0,11.0,24.0,15.0
78,,35.129883,-85.245796,2018-11-16,9:27:43,4907 HIXSON PIKE,3303588001,4.2,CHATTANOOGA,partly-cloudy-day,Mostly Cloudy,clear-night,Clear,9,32.89,54.05,28.77,,,,28.63,0.84,11,4,7.01,0.5,,0.0,0.0,-1000,0,1,0,0,0,0,2.0,2.0,0.0,1.0,2.0,40.0,4.0,4.0,16.0,4.0,14.0,28190.0,10.0,24.0,15.0
79,,35.070439,-85.190097,2018-11-16,15:31:41,4326 JERSEY PIKE,330C198001,0.14300000000000002,CHATTANOOGA,partly-cloudy-day,Partly Cloudy,clear-night,Clear,15,53.6,54.05,28.88,,,,34.05,0.47,11,4,6.02,0.47,,0.0,0.0,-1000,0,1,0,0,0,0,2.0,2.0,0.0,,2.0,,2.0,2.0,12.0,4.0,19.0,,,30.0,15.0
80,,35.107439,-85.272335,2018-11-16,13:39:35,3637 Hixson Pike,3303588001,1.761,CHATTANOOGA,partly-cloudy-day,Mostly Cloudy,fog,Foggy,13,48.53,53.96,28.57,,,,32.49,0.54,11,4,6.38,0.51,,0.0,0.0,-1000,0,1,0,0,0,0,2.0,2.0,0.0,1.0,2.0,40.0,4.0,4.0,16.0,4.0,14.0,21540.0,12.0,24.0,15.0
81,,35.152975,-85.24562,2018-11-16,13:41:00,5764 Highway 153,3304428001,0.8909999999999999,CHATTANOOGA,partly-cloudy-day,Mostly Cloudy,clear-night,Clear,13,48.7,54.07,28.69,,,,32.61,0.54,11,4,7.11,0.49,,0.0,0.0,-1000,0,1,0,0,0,0,2.0,0.0,0.0,1.0,2.0,35.0,2.0,2.0,18.0,4.0,17.0,4500.0,12.0,24.0,15.0
82,,35.003845,-85.15036500000002,2018-11-16,23:48:09,8034 E BRAINERD RD,33SR320001,3.794,CHATTANOOGA,clear-night,Clear,clear-night,Clear,23,38.42,54.18,29.69,,,,35.19,0.88,11,4,2.74,0.46,,0.0,0.0,-1000,1,0,0,0,0,0,2.0,2.0,0.0,1.0,2.0,40.0,4.0,4.0,21.0,1.0,14.0,28570.0,10.0,22.0,15.0
83,,35.048860999999995,-85.17899399999997,2018-11-16,8:50:24,6220 Shallowford Rd,330E523001,0.395,CHATTANOOGA,partly-cloudy-day,Partly Cloudy,clear-night,Clear,8,30.11,54.19,29.58,,,,27.66,0.9,11,4,4.92,0.47,,0.0,0.0,-1000,0,1,0,0,0,0,2.0,7.0,0.0,,2.0,25.0,2.0,2.0,12.0,4.0,19.0,,,26.0,15.0
84,,35.175794,-85.158928,2018-11-16,0:54:58,2200 GOLD POINT CIR N,3304991001,0.961,HAMILTON COUNTY,rain,Rain,cloudy,Overcast,0,43.15,43.73,33.23,,,,41.09,0.92,11,4,2.84,0.99,rain,0.0322,0.1446,1542261600,0,0,1,0,0,0,,0.0,0.0,,2.0,30.0,2.0,2.0,18.0,2.0,18.0,2090.0,13.0,20.0,15.0
85,,35.050738,-85.213088,2018-11-16,9:03:59,4600 SHALLOWFORD RD,3303556001,4.129,CHATTANOOGA,partly-cloudy-day,Partly Cloudy,clear-night,Clear,9,33.57,54.22,29.06,,,,28.64,0.82,11,4,6.33,0.48,,0.0,0.0,-1000,0,1,0,0,0,0,2.0,2.0,0.0,1.0,2.0,40.0,4.0,4.0,18.0,4.0,14.0,22270.0,13.0,24.0,15.0
86,,35.047377000000004,-85.29355,2018-11-16,11:05:42,400 Palmetto St,330A361001,0.285,CHATTANOOGA,clear-day,Clear,fog,Foggy,11,40.66,54.2,28.94,,,,29.86,0.65,11,4,6.33,0.52,,0.0,0.0,-1000,1,0,0,0,0,0,2.0,7.0,0.0,1.0,2.0,25.0,2.0,2.0,12.0,4.0,19.0,,,30.0,15.0
87,,35.004637,-85.286675,2018-11-16,4:14:33,4th Ave / E 34th St,330A939001,1.138,CHATTANOOGA,partly-cloudy-night,Partly Cloudy,clear-night,Clear,4,30.71,54.19,29.03,,,,27.17,0.87,11,4,5.65,0.5,,0.0,0.0,-1000,0,1,0,0,0,0,2.0,7.0,0.0,1.0,2.0,30.0,2.0,2.0,12.0,4.0,19.0,,,30.0,15.0
88,,35.003328,-85.28733299999998,2018-11-16,13:27:36,E 35th St / 4th Ave,3303572001,0.196,CHATTANOOGA,partly-cloudy-day,Mostly Cloudy,clear-night,Clear,13,48.78,54.19,29.03,,,,32.5,0.53,11,4,5.46,0.52,,0.0,0.0,-1000,0,1,0,0,0,0,2.0,7.0,0.0,1.0,2.0,30.0,2.0,2.0,18.0,4.0,17.0,2770.0,11.0,36.0,15.0
89,,35.02432,-85.174239,2018-11-16,18:37:33,400 Interstate 75 Nb,33I0075001,4.019,CHATTANOOGA,partly-cloudy-night,Partly Cloudy,clear-night,Clear,18,49.17,54.21,29.65,,,,37.92,0.65,11,4,6.11,0.47,,0.0,0.0,-1000,0,1,0,0,0,0,2.0,7.0,2.0,0.0,2.0,55.0,6.0,7.0,2.0,1.0,11.0,90560.0,9.0,48.0,18.0
90,,35.02924,-85.170472,2018-11-16,17:37:56,440 INTERSTATE 75 NB,33I0075001,4.42,CHATTANOOGA,partly-cloudy-day,Partly Cloudy,clear-night,Clear,17,53.69,54.12,29.57,,,,35.56,0.5,11,4,6.12,0.47,,0.0,0.0,-1000,0,1,0,0,0,0,2.0,7.0,2.0,0.0,2.0,55.0,6.0,6.0,2.0,1.0,11.0,90560.0,9.0,36.0,18.0
91,,35.021809000000005,-85.297892,2018-11-16,19:44:24,18000 Interstate 24 Eb,33I0024002,8.966000000000003,CHATTANOOGA,partly-cloudy-night,Partly Cloudy,fog,Foggy,19,45.98,54.27,29.02,,,,37.91,0.73,11,4,5.47,0.52,,0.0,0.0,-1000,0,1,0,0,0,0,2.0,2.0,2.0,1.0,2.0,55.0,6.0,8.0,2.0,1.0,11.0,120370.0,9.0,36.0,15.0
92,,35.01568,-85.277396,2018-11-16,5:50:35,1 - 9 Exit 181 Off Ramp Wb,33I0024002,10.253,CHATTANOOGA,clear-night,Clear,clear-night,Clear,5,30.24,54.1,28.93,,,,27.26,0.89,11,4,3.54,0.5,,0.0,0.0,-1000,1,0,0,0,0,0,2.0,2.0,2.0,1.0,2.0,55.0,6.0,8.0,2.0,1.0,11.0,124270.0,9.0,36.0,15.0
93,,35.031451000000004,-85.314624,2018-11-16,17:52:43,2200 Broad St,33SR002001,7.265,CHATTANOOGA,partly-cloudy-day,Mostly Cloudy,fog,Foggy,17,53.89,54.25,28.99,,,,35.8,0.5,11,4,3.23,0.54,,0.0,0.0,-1000,0,1,0,0,0,0,2.0,2.0,0.0,1.0,2.0,35.0,5.0,6.0,13.0,1.0,14.0,23280.0,11.0,36.0,15.0
94,,35.218243,-85.14743100000003,2018-11-16,18:56:32,8900 E RIDGE TRAIL RD,330D896001,0.466,HAMILTON COUNTY,partly-cloudy-night,Partly Cloudy,clear-night,Clear,18,48.11,53.09,28.13,,,,37.85,0.67,11,4,10.0,0.44,,0.0,0.0,-1000,0,1,0,0,0,0,2.0,7.0,0.0,,2.0,,2.0,2.0,11.0,2.0,19.0,,,18.0,15.0
95,,35.030119,-85.315353,2018-11-16,11:02:11,2400 - 2499 Broad St,33SR002001,7.1629999999999985,CHATTANOOGA,clear-day,Clear,fog,Foggy,11,40.71,54.25,29.0,,,,29.85,0.65,11,4,3.24,0.54,,0.0,0.0,-1000,1,0,0,0,0,0,2.0,2.0,0.0,1.0,2.0,35.0,4.0,4.0,13.0,1.0,14.0,23280.0,11.0,24.0,15.0
96,,35.028932,-85.322434,2018-11-16,5:07:55,17820 INTERSTATE 24 EB,33I0024002,7.279,CHATTANOOGA,clear-night,Clear,fog,Foggy,5,30.28,54.28,29.02,,,,27.03,0.88,11,4,2.58,0.54,,0.0,0.0,-1000,1,0,0,0,0,0,2.0,5.0,2.0,1.0,2.0,55.0,4.0,7.0,2.0,1.0,11.0,72780.0,9.0,24.0,15.0
97,,35.086065000000005,-85.211434,2018-11-16,21:09:29,500 Highway 153 Nb,33SR153001,5.087,CHATTANOOGA,partly-cloudy-night,Partly Cloudy,fog,Foggy,21,41.37,53.87,28.61,,,,37.06,0.85,11,4,3.93,0.49,,0.0,0.0,-1000,0,1,0,0,0,0,2.0,4.0,2.0,0.0,2.0,55.0,6.0,8.0,13.0,1.0,12.0,76180.0,10.0,36.0,15.0
98,,35.028932,-85.322434,2018-11-16,3:15:56,17820 INTERSTATE 24 EB,33I0024002,7.279,CHATTANOOGA,partly-cloudy-night,Mostly Cloudy,fog,Foggy,3,31.94,54.28,29.02,,,,26.45,0.8,11,4,2.58,0.54,,0.0,0.0,-1000,0,1,0,0,0,0,2.0,5.0,2.0,1.0,2.0,55.0,4.0,7.0,2.0,1.0,11.0,72780.0,9.0,24.0,15.0
99,,35.017934999999994,-85.27968100000002,2018-11-16,7:20:34,2200 - 2299 E 23rd St,3303573001,0.097,CHATTANOOGA,clear-night,Clear,clear-night,Clear,7,29.01,54.18,29.01,,,,27.1,0.92,11,4,5.52,0.5,,0.0,0.0,-1000,1,0,0,0,0,0,2.0,2.0,0.0,1.0,2.0,30.0,3.0,3.0,18.0,4.0,16.0,5160.0,10.0,12.0,15.0
100,,35.017551,-85.173294,2018-11-16,11:42:58,7020 E Brainerd Rd,330E416001,0.316,CHATTANOOGA,clear-day,Clear,clear-night,Clear,11,40.56,54.13,29.58,,,,29.6,0.65,11,4,6.09,0.47,,0.0,0.0,-1000,1,0,0,0,0,0,2.0,7.0,0.0,,2.0,,2.0,2.0,12.0,4.0,19.0,,,22.0,15.0
101,,35.133463,-85.24175600000002,2018-11-16,16:51:40,5012 HIXSON PIKE,33SR319001,4.578,CHATTANOOGA,partly-cloudy-day,Partly Cloudy,clear-night,Clear,16,54.1,54.1,28.81,,,,34.47,0.47,11,4,7.14,0.49,,0.0,0.0,-1000,0,1,0,0,0,0,2.0,2.0,0.0,1.0,2.0,40.0,4.0,4.0,13.0,1.0,14.0,30820.0,10.0,24.0,15.0
102,,35.200097,-85.158988,2018-11-16,20:54:21,8540 Hixson Pike,33SR319001,11.884,LAKESITE,partly-cloudy-night,Partly Cloudy,clear-night,Clear,20,42.13,53.96,28.67,,,,37.43,0.83,11,4,7.56,0.45,,0.0,0.0,-1000,0,1,0,0,0,0,2.0,4.0,0.0,1.0,2.0,45.0,4.0,4.0,13.0,1.0,14.0,17270.0,13.0,24.0,15.0
103,,35.09527,-85.176264,2018-11-16,9:01:03,5036 Highway 58,33SR058001,6.5379999999999985,CHATTANOOGA,partly-cloudy-day,Partly Cloudy,clear-night,Clear,9,32.72,53.68,28.53,,,,28.56,0.84,11,4,6.55,0.48,,0.0,0.0,-1000,0,1,0,0,0,0,2.0,2.0,0.0,0.0,2.0,50.0,5.0,5.0,13.0,1.0,14.0,30250.0,11.0,36.0,15.0
104,,35.09661,-85.174164,2018-11-16,8:01:19,5012 - 5099 Highway 58,33SR058001,6.689,CHATTANOOGA,partly-cloudy-day,Partly Cloudy,clear-night,Clear,8,29.5,53.66,28.51,,,,27.78,0.93,11,4,5.13,0.48,,0.0,0.0,-1000,0,1,0,0,0,0,2.0,4.0,0.0,0.0,2.0,50.0,5.0,5.0,13.0,1.0,14.0,30250.0,11.0,24.0,15.0
105,,35.02733,-85.364351,2018-11-16,18:02:49,17520 INTERSTATE 24 EB,33I0024002,4.22,CHATTANOOGA,partly-cloudy-night,Mostly Cloudy,fog,Foggy,18,49.21,54.18,28.91,,,,37.84,0.65,11,4,3.46,0.54,,0.0,0.0,-1000,0,1,0,0,0,0,2.0,0.0,2.0,0.0,2.0,65.0,4.0,4.0,,,,,,24.0,15.0
106,,35.082552,-85.059718,2018-11-16,7:07:01,5974 Elementary Way,33SR002001,21.083,COLLEGEDALE,clear-night,Clear,clear-night,Clear,7,29.27,53.77,29.27,,,,27.1,0.91,11,4,6.22,0.42,,0.0,0.0,-1000,1,0,0,0,0,0,2.0,2.0,0.0,0.0,2.0,45.0,4.0,4.0,21.0,1.0,16.0,31020.0,10.0,24.0,15.0
107,,35.083784,-85.059887,2018-11-16,15:07:16,9227 LEE HWY,33SR002001,21.04,CHATTANOOGA,partly-cloudy-day,Partly Cloudy,clear-night,Clear,15,53.17,53.78,29.27,,,,33.92,0.48,11,4,7.01,0.42,,0.0,0.0,-1000,0,1,0,0,0,0,2.0,2.0,0.0,0.0,2.0,45.0,4.0,4.0,21.0,1.0,16.0,31020.0,10.0,24.0,15.0
108,,35.082749,-85.05854000000002,2018-11-16,0:13:14,9301 Lee Hwy,3301145001,6.876,CHATTANOOGA,rain,Rain,cloudy,Overcast,0,43.64,43.86,32.62,,,,42.23,0.95,11,4,3.24,0.99,rain,0.031,0.135,1542268800,0,0,1,0,0,0,2.0,7.0,0.0,1.0,2.0,40.0,2.0,2.0,18.0,4.0,16.0,5580.0,11.0,22.0,15.0
109,,35.02783,-85.315794,2018-11-16,23:34:02,2528 BROAD ST,330A658001,0.234,CHATTANOOGA,fog,Foggy,fog,Foggy,23,38.8,54.26,29.0,,,,35.11,0.86,11,4,1.53,0.54,,0.0,0.0,-1000,0,0,0,1,0,0,2.0,7.0,0.0,1.0,2.0,,2.0,2.0,12.0,4.0,19.0,,,30.0,18.0
110,,35.062331,-85.06580100000002,2018-11-16,21:47:21,5070 Ooltewah Ringgold Rd,33SR321001,5.607,COLLEGEDALE,partly-cloudy-night,Partly Cloudy,clear-night,Clear,21,40.15,53.67,29.21,,,,36.28,0.86,11,4,7.77,0.42,,0.0,0.0,-1000,0,1,0,0,0,0,2.0,7.0,0.0,1.0,2.0,35.0,2.0,2.0,21.0,1.0,16.0,10040.0,11.0,12.0,15.0
111,,35.200667,-85.233176,2018-11-16,14:08:46,1320-1479 Highway 27 Sb,33SR029001,12.2,CHATTANOOGA,partly-cloudy-day,Partly Cloudy,clear-night,Clear,14,51.42,54.21,28.85,,,,32.75,0.49,11,4,7.43,0.48,,0.0,0.0,-1000,0,1,0,0,0,0,2.0,0.0,2.0,0.0,2.0,65.0,4.0,4.0,13.0,1.0,12.0,32600.0,12.0,24.0,15.0
112,,34.990015,-85.210009,2018-11-16,10:46:38,6401 Ringgold Rd,330B821001,0.036000000000000004,EAST RIDGE,partly-cloudy-day,Partly Cloudy,clear-night,Clear,10,36.77,54.17,29.12,,,,28.91,0.73,11,4,6.09,0.47,,0.0,0.0,-1000,0,1,0,0,0,0,2.0,0.0,0.0,,2.0,,2.0,2.0,12.0,4.0,19.0,,,26.0,15.0
113,,34.989184,-85.21045500000002,2018-11-16,12:46:41,6404 Ringgold Rd,330B866001,0.201,EAST RIDGE,partly-cloudy-day,Partly Cloudy,clear-night,Clear,12,45.1,54.16,29.12,,,,31.05,0.58,11,4,6.09,0.47,,0.0,0.0,-1000,0,1,0,0,0,0,2.0,7.0,0.0,1.0,2.0,30.0,2.0,2.0,12.0,4.0,19.0,,,18.0,15.0
114,,34.989207,-85.209636,2018-11-16,6:46:44,6408 Ringgold Rd,3304147001,0.245,EAST RIDGE,clear-night,Clear,clear-night,Clear,6,29.86,54.17,29.12,,,,27.14,0.89,11,4,5.73,0.47,,0.0,0.0,-1000,1,0,0,0,0,0,2.0,7.0,0.0,1.0,2.0,30.0,2.0,2.0,18.0,4.0,17.0,9760.0,11.0,24.0,15.0
115,,34.990053,-85.209789,2018-11-16,13:46:58,6401 Ringgold Rd,330B821001,0.042,EAST RIDGE,partly-cloudy-day,Partly Cloudy,clear-night,Clear,13,48.78,54.17,29.12,,,,32.47,0.53,11,4,5.49,0.47,,0.0,0.0,-1000,0,1,0,0,0,0,2.0,0.0,0.0,,2.0,,2.0,2.0,12.0,4.0,19.0,,,26.0,15.0
116,,34.989184,-85.21045500000002,2018-11-16,3:47:02,6404 Ringgold Rd,330B866001,0.201,EAST RIDGE,partly-cloudy-night,Mostly Cloudy,clear-night,Clear,3,32.09,54.16,29.12,,,,26.92,0.81,11,4,5.73,0.47,,0.0,0.0,-1000,0,1,0,0,0,0,2.0,7.0,0.0,1.0,2.0,30.0,2.0,2.0,12.0,4.0,19.0,,,18.0,15.0
117,,34.989207,-85.209636,2018-11-16,14:47:20,6408 Ringgold Rd,3304147001,0.245,EAST RIDGE,partly-cloudy-day,Partly Cloudy,clear-night,Clear,14,51.41,54.17,29.12,,,,33.05,0.49,11,4,5.73,0.47,,0.0,0.0,-1000,0,1,0,0,0,0,2.0,7.0,0.0,1.0,2.0,30.0,2.0,2.0,18.0,4.0,17.0,9760.0,11.0,24.0,15.0
118,,34.990053,-85.209789,2018-11-16,1:47:20,6401 Ringgold Rd,330B821001,0.042,EAST RIDGE,cloudy,Overcast,clear-night,Clear,1,32.69,54.17,29.12,,,,26.53,0.78,11,4,5.49,0.47,,0.0,0.0,-1000,0,1,0,0,0,0,2.0,0.0,0.0,,2.0,,2.0,2.0,12.0,4.0,19.0,,,26.0,15.0
119,,34.990015,-85.210009,2018-11-16,6:47:26,6401 Ringgold Rd,330B821001,0.036000000000000004,EAST RIDGE,clear-night,Clear,clear-night,Clear,6,29.86,54.17,29.12,,,,27.14,0.89,11,4,5.73,0.47,,0.0,0.0,-1000,1,0,0,0,0,0,2.0,0.0,0.0,,2.0,,2.0,2.0,12.0,4.0,19.0,,,26.0,15.0
120,,34.989471,-85.209287,2018-11-16,20:47:44,1500 - 1597 Mack Smith Rd,33SR008001,1.2819999999999998,EAST RIDGE,partly-cloudy-night,Partly Cloudy,clear-night,Clear,20,42.6,54.17,29.12,,,,37.56,0.82,11,4,5.26,0.47,,0.0,0.0,-1000,0,1,0,0,0,0,2.0,2.0,0.0,1.0,2.0,35.0,4.0,4.0,13.0,1.0,14.0,29170.0,10.0,24.0,15.0
121,,34.989585,-85.210514,2018-11-16,3:48:21,6400 Ringgold Rd,33SR008001,1.352,EAST RIDGE,partly-cloudy-night,Mostly Cloudy,clear-night,Clear,3,32.09,54.16,29.12,,,,26.92,0.81,11,4,5.73,0.47,,0.0,0.0,-1000,0,1,0,0,0,0,2.0,2.0,0.0,1.0,2.0,35.0,4.0,4.0,13.0,1.0,14.0,29170.0,10.0,24.0,15.0
122,,34.989207,-85.209636,2018-11-16,11:48:12,6408 Ringgold Rd,3304147001,0.245,EAST RIDGE,clear-day,Clear,clear-night,Clear,11,40.72,54.17,29.12,,,,30.02,0.65,11,4,6.09,0.47,,0.0,0.0,-1000,1,0,0,0,0,0,2.0,7.0,0.0,1.0,2.0,30.0,2.0,2.0,18.0,4.0,17.0,9760.0,11.0,24.0,15.0
123,,34.989471,-85.209287,2018-11-16,3:48:18,1500 - 1597 Mack Smith Rd,33SR008001,1.2819999999999998,EAST RIDGE,partly-cloudy-night,Mostly Cloudy,clear-night,Clear,3,32.09,54.17,29.12,,,,26.92,0.81,11,4,5.73,0.47,,0.0,0.0,-1000,0,1,0,0,0,0,2.0,2.0,0.0,1.0,2.0,35.0,4.0,4.0,13.0,1.0,14.0,29170.0,10.0,24.0,15.0
124,,35.043139000000004,-85.168624,2018-11-16,11:06:55,2201 Hickory Valley Rd,3303603001,1.975,CHATTANOOGA,clear-day,Clear,clear-night,Clear,11,40.61,54.19,29.61,,,,29.58,0.64,11,4,6.16,0.46,,0.0,0.0,-1000,1,0,0,0,0,0,2.0,4.0,0.0,1.0,2.0,35.0,2.0,2.0,18.0,4.0,16.0,9870.0,12.0,24.0,18.0
125,,35.134009000000006,-85.281818,2018-11-16,4:51:09,4613 DAYTON BLVD,330C677001,0.029,RED BANK,partly-cloudy-night,Partly Cloudy,fog,Foggy,4,29.97,53.71,28.36,,,,27.06,0.89,11,4,6.54,0.5,,0.0,0.0,-1000,0,1,0,0,0,0,2.0,4.0,0.0,,2.0,25.0,2.0,2.0,12.0,4.0,19.0,,,16.0,15.0
126,,35.195152,-85.24418100000003,2018-11-16,23:07:08,Dayton Pike / Roberts Mill Rd,3302162001,0.499,SODDY DAISY,clear-night,Clear,clear-night,Clear,23,38.1,54.08,28.72,,,,34.03,0.85,11,4,3.47,0.48,,0.0,0.0,-1000,1,0,0,0,0,0,2.0,0.0,0.0,,2.0,50.0,2.0,2.0,18.0,4.0,16.0,11480.0,12.0,24.0,15.0
127,,35.084596999999995,-85.06203199999999,2018-11-16,21:19:24,9211 LEE HWY,33SR002001,20.907,CHATTANOOGA,partly-cloudy-night,Partly Cloudy,clear-night,Clear,21,40.04,53.79,29.27,,,,36.22,0.86,11,4,7.93,0.42,,0.0,0.0,-1000,0,1,0,0,0,0,2.0,2.0,0.0,0.0,2.0,45.0,4.0,4.0,21.0,1.0,16.0,31020.0,10.0,24.0,15.0
128,,35.001294,-85.21086600000001,2018-11-17,22:16:38,120 INTERSTATE 75 NB,33I0075001,1.202,CHATTANOOGA,clear-night,Clear,clear-night,Clear,22,44.08,62.34,32.72,,,,39.86,0.85,11,5,3.3,0.55,,0.0,0.0,-1000,1,0,0,0,0,0,1.0,0.0,2.0,1.0,2.0,55.0,4.0,4.0,2.0,1.0,11.0,108850.0,9.0,24.0,15.0
129,,35.001294,-85.21086600000001,2018-11-17,18:20:39,120 Interstate 75 Nb,33I0075001,1.202,CHATTANOOGA,partly-cloudy-night,Partly Cloudy,clear-night,Clear,18,52.75,62.34,32.72,,,,42.4,0.68,11,5,3.66,0.55,,0.0,0.0,-1000,0,1,0,0,0,0,1.0,0.0,2.0,1.0,2.0,55.0,4.0,4.0,2.0,1.0,11.0,108850.0,9.0,24.0,15.0
130,,35.069274,-85.301286,2018-11-17,1:25:14,508 Colville St,330A234001,0.215,CHATTANOOGA,fog,Foggy,clear-night,Clear,1,36.22,61.82,32.23,,,,33.78,0.91,11,5,1.77,0.58,,0.0,0.0,-1000,0,0,0,1,0,0,2.0,7.0,0.0,1.0,2.0,,2.0,2.0,12.0,4.0,19.0,,,30.0,15.0
131,,35.069673,-85.301847,2018-11-17,7:25:57,503 Colville St,330A234001,0.247,CHATTANOOGA,fog,Foggy,clear-night,Clear,7,33.0,61.82,32.23,,,,33.0,1.0,11,5,0.96,0.58,,0.0,0.0,-1000,0,0,0,1,0,0,2.0,7.0,0.0,1.0,2.0,,2.0,2.0,12.0,4.0,19.0,,,30.0,15.0
132,,35.052314,-85.30963299999999,2018-11-17,6:57:29,400 MARKET ST,33SR008001,9.415,CHATTANOOGA,fog,Foggy,clear-night,Clear,6,33.58,62.21,32.62,,,,32.6,0.96,11,5,1.14,0.59,,0.0,0.0,-1000,0,0,0,1,0,0,2.0,2.0,0.0,1.0,2.0,30.0,4.0,4.0,21.0,1.0,16.0,17840.0,11.0,23.0,15.0
133,,35.240365000000004,-85.135307,2018-11-17,0:48:34,1614 GREEN POND RD,330E058001,1.474,HAMILTON COUNTY,cloudy,Overcast,clear-night,Clear,0,32.92,53.14,28.22,,,,25.53,0.74,11,5,10.0,0.43,,0.0,0.0,-1000,0,1,0,0,0,0,2.0,7.0,0.0,,2.0,35.0,2.0,2.0,11.0,2.0,19.0,,,18.0,15.0
134,,35.327998,-85.133163,2018-11-17,16:05:34,12999 Dayton Pike,330D756001,1.0070000000000001,HAMILTON COUNTY,clear-day,Clear,clear-night,Clear,16,61.72,61.72,31.09,,,,38.22,0.42,11,5,10.0,0.45,,0.0,0.0,-1000,1,0,0,0,0,0,2.0,0.0,0.0,,2.0,30.0,2.0,2.0,12.0,4.0,19.0,,,14.0,6.0
135,,35.030307,-85.155058,2018-11-17,11:56:47,2000 GUNBARREL RD,3305787001,0.021,CHATTANOOGA,partly-cloudy-day,Mostly Cloudy,clear-night,Clear,11,45.98,62.09,32.83,,,,40.09,0.8,11,5,2.19,0.53,,0.0,0.0,-1000,0,1,0,0,0,0,2.0,2.0,0.0,1.0,2.0,35.0,2.0,2.0,18.0,4.0,17.0,4510.0,0.0,12.0,15.0
136,,35.094789,-85.18979,2018-11-17,11:00:04,4000 WEBB RD,3303597001,0.622,CHATTANOOGA,fog,Foggy,clear-night,Clear,11,44.99,61.63,32.65,,,,40.02,0.83,11,5,1.76,0.55,,0.0,0.0,-1000,0,0,0,1,0,0,2.0,7.0,0.0,1.0,2.0,30.0,2.0,2.0,18.0,4.0,17.0,4670.0,11.0,18.0,15.0
137,,35.134271000000005,-85.25469100000001,2018-11-17,1:01:27,4606 Norcross Rd,3303593001,1.518,CHATTANOOGA,clear-night,Clear,clear-night,Clear,1,36.08,61.8,32.57,,,,33.59,0.91,11,5,4.49,0.56,,0.0,0.0,-1000,1,0,0,0,0,0,2.0,4.0,0.0,1.0,2.0,40.0,2.0,2.0,18.0,4.0,16.0,7070.0,12.0,24.0,15.0
138,,35.143777,-85.199465,2018-11-17,1:05:31,6400 FAIRVIEW RD,3304135001,3.4389999999999996,CHATTANOOGA,clear-night,Clear,clear-night,Clear,1,35.82,61.35,32.32,,,,33.59,0.91,11,5,4.47,0.54,,0.0,0.0,-1000,1,0,0,0,0,0,3.0,7.0,0.0,1.0,2.0,35.0,2.0,2.0,18.0,4.0,17.0,3130.0,15.0,22.0,15.0
139,,35.033776,-85.309966,2018-11-17,7:00:43,1805 Long St,330A642001,0.7759999999999999,CHATTANOOGA,fog,Foggy,clear-night,Clear,7,33.51,62.32,33.13,,,,33.08,0.98,11,5,0.97,0.62,,0.0,0.0,-1000,0,0,0,1,0,0,2.0,4.0,0.0,1.0,2.0,30.0,3.0,3.0,12.0,4.0,19.0,,,26.0,15.0
140,,35.223766999999995,-85.105013,2018-11-17,5:13:55,10533 Hunter Trace Dr,330F169001,0.593,HAMILTON COUNTY,partly-cloudy-night,Partly Cloudy,clear-night,Clear,5,33.07,61.24,31.91,,,,31.31,0.93,11,5,2.84,0.48,,0.0,0.0,-1000,0,1,0,0,0,0,2.0,7.0,0.0,,2.0,25.0,2.0,2.0,11.0,2.0,19.0,,,26.0,15.0
141,,35.141442,-85.229724,2018-11-17,3:36:11,5414 Hixson Pike,3305717001,0.308,CHATTANOOGA,fog,Foggy,clear-night,Clear,3,35.01,62.14,33.01,,,,33.39,0.94,11,5,1.14,0.55,,0.0,0.0,-1000,0,0,0,1,0,0,2.0,4.0,0.0,1.0,2.0,25.0,2.0,2.0,18.0,4.0,17.0,120.0,13.0,28.0,15.0
142,,35.007527,-85.159886,2018-11-17,22:52:03,1300 Reserve Way,330E564001,0.342,CHATTANOOGA,clear-night,Clear,clear-night,Clear,22,44.12,62.25,32.9,,,,39.8,0.85,11,5,3.57,0.53,,0.0,0.0,-1000,1,0,0,0,0,0,,,,,,,,,,,,,,,
143,,35.095844,-85.245347,2018-11-17,6:57:59,1 - 9 Exit Amnicola Hwy W On Ramp Nb,33SR319001,1.746,CHATTANOOGA,fog,Foggy,clear-night,Clear,6,33.84,62.19,32.89,,,,32.62,0.95,11,5,0.9,0.57,,0.0,0.0,-1000,0,0,0,1,0,0,2.0,5.0,0.0,0.0,2.0,50.0,4.0,4.0,13.0,1.0,14.0,27320.0,11.0,24.0,15.0
144,,35.070572,-85.064571,2018-11-17,4:12:01,5425 OOLTEWAH RINGGOLD RD,33SR321001,6.182,COLLEGEDALE,fog,Foggy,clear-night,Clear,4,34.27,61.64,32.4,,,,32.7,0.94,11,5,0.79,0.48,,0.0,0.0,-1000,0,0,0,1,0,0,2.0,2.0,0.0,1.0,2.0,30.0,2.0,2.0,21.0,1.0,16.0,10040.0,11.0,20.0,15.0
145,,35.016484000000005,-85.20711700000001,2018-11-17,14:31:05,5956 Brainerd Rd,330B038001,0.348,CHATTANOOGA,partly-cloudy-day,Partly Cloudy,clear-night,Clear,14,59.88,62.29,32.73,,,,38.82,0.46,11,5,4.24,0.55,,0.0,0.0,-1000,0,1,0,0,0,0,2.0,0.0,0.0,,2.0,,2.0,2.0,12.0,4.0,19.0,,,28.0,15.0
146,,35.081342,-85.264146,2018-11-17,21:33:32,3406 Amnicola Hwy,3305395001,6.278,CHATTANOOGA,partly-cloudy-night,Mostly Cloudy,clear-night,Clear,21,45.43,62.2,32.86,,,,41.04,0.84,11,5,2.65,0.57,,0.0,0.0,-1000,0,1,0,0,0,0,2.0,5.0,0.0,1.0,2.0,50.0,4.0,4.0,16.0,4.0,14.0,34670.0,10.0,24.0,15.0
147,,35.062271,-85.137823,2018-11-17,17:11:04,Bonny Oaks Dr / Silverdale Rd,33SR317001,4.547,CHATTANOOGA,partly-cloudy-day,Partly Cloudy,clear-night,Clear,17,59.56,61.87,32.71,,,,39.76,0.48,11,5,5.82,0.52,,0.0,0.0,-1000,0,1,0,0,0,0,2.0,2.0,0.0,1.0,2.0,45.0,4.0,4.0,13.0,1.0,14.0,17080.0,11.0,24.0,15.0
148,,35.035571999999995,-85.163223,2018-11-17,23:15:15,500 INTERSTATE 75 NB,33I0075001,5.016,CHATTANOOGA,clear-night,Clear,clear-night,Clear,23,41.96,62.09,32.83,,,,38.78,0.88,11,5,3.44,0.53,,0.0,0.0,-1000,1,0,0,0,0,0,2.0,4.0,2.0,0.0,2.0,55.0,6.0,8.0,2.0,1.0,11.0,90560.0,9.0,36.0,18.0
149,,35.138511,-85.119924,2018-11-17,14:19:02,6700 - 6799 Hunter Rd,3302205001,0.094,HAMILTON COUNTY,partly-cloudy-day,Partly Cloudy,clear-night,Clear,14,59.3,61.63,32.77,,,,38.39,0.46,11,5,5.67,0.51,,0.0,0.0,-1000,0,1,0,0,0,0,2.0,0.0,0.0,0.0,2.0,40.0,2.0,2.0,18.0,2.0,16.0,3390.0,11.0,22.0,15.0
150,,35.035571999999995,-85.163223,2018-11-17,5:20:06,500 INTERSTATE 75 NB,33I0075001,5.016,CHATTANOOGA,fog,Foggy,clear-night,Clear,5,33.78,62.09,32.83,,,,32.02,0.93,11,5,1.82,0.53,,0.0,0.0,-1000,0,0,0,1,0,0,2.0,4.0,2.0,0.0,2.0,55.0,6.0,8.0,2.0,1.0,11.0,90560.0,9.0,36.0,18.0
151,,35.035484000000004,-85.259999,2018-11-17,10:23:17,300 GLENWOOD CIR,330A677001,0.11699999999999999,CHATTANOOGA,fog,Foggy,clear-night,Clear,10,38.25,61.69,32.17,,,,37.34,0.96,11,5,1.59,0.56,,0.0,0.0,-1000,0,0,0,1,0,0,2.0,7.0,0.0,1.0,2.0,30.0,2.0,2.0,12.0,4.0,19.0,,,24.0,15.0
152,,35.037028,-85.260482,2018-11-17,21:26:40,400 Glenwood Dr,330A680001,0.033,CHATTANOOGA,partly-cloudy-night,Mostly Cloudy,clear-night,Clear,21,44.91,61.63,32.24,,,,41.04,0.86,11,5,2.63,0.58,,0.0,0.0,-1000,0,1,0,0,0,0,2.0,7.0,0.0,1.0,2.0,,2.0,2.0,12.0,4.0,19.0,,,30.0,15.0
153,,35.00119,-85.134417,2018-11-17,13:27:05,8600 E BRAINERD RD,33SR320001,4.731,CHATTANOOGA,partly-cloudy-day,Partly Cloudy,clear-night,Clear,13,57.17,62.06,32.73,,,,39.73,0.52,11,5,5.97,0.52,,0.0,0.0,-1000,0,1,0,0,0,0,2.0,4.0,0.0,1.0,2.0,40.0,4.0,4.0,21.0,1.0,14.0,19580.0,11.0,24.0,15.0
154,,35.085423,-85.208378,2018-11-17,7:31:10,4403 James Ln,330D416001,0.593,CHATTANOOGA,fog,Foggy,clear-night,Clear,7,32.89,61.6,32.49,,,,32.89,1.0,11,5,0.98,0.56,,0.0,0.0,-1000,0,0,0,1,0,0,2.0,7.0,0.0,1.0,2.0,,2.0,2.0,12.0,4.0,19.0,,,22.0,15.0
155,,35.000901,-85.132689,2018-11-17,5:55:58,8626 - 8699 E Brainerd Rd,33SR320001,4.832,CHATTANOOGA,fog,Foggy,clear-night,Clear,5,33.68,62.02,32.68,,,,32.03,0.94,11,5,1.81,0.52,,0.0,0.0,-1000,0,0,0,1,0,0,2.0,4.0,0.0,1.0,2.0,40.0,4.0,4.0,21.0,1.0,14.0,19580.0,11.0,24.0,15.0
156,,35.304432,-85.162948,2018-11-17,6:01:31,11798-11833 BACK VALLEY RD,3302219001,2.6060000000000003,SODDY DAISY,fog,Foggy,clear-night,Clear,6,32.03,61.38,31.05,,,,31.38,0.97,11,5,0.25,0.48,,0.0,0.0,-1000,0,0,0,1,0,0,2.0,7.0,0.0,1.0,2.0,35.0,2.0,2.0,18.0,4.0,16.0,290.0,14.0,12.0,15.0
157,,35.002681,-85.13341199999999,2018-11-17,3:14:58,8645 E BRAINERD RD,3303582001,2.676,CHATTANOOGA,fog,Foggy,clear-night,Clear,3,34.69,62.06,32.73,,,,33.34,0.95,11,5,0.99,0.52,,0.0,0.0,-1000,0,0,0,1,0,0,2.0,7.0,0.0,1.0,2.0,40.0,2.0,2.0,18.0,4.0,16.0,8020.0,11.0,20.0,15.0
158,,35.024501,-85.15562800000001,2018-11-17,6:58:30,1816 Gunbarrel Rd,3304988001,2.853,CHATTANOOGA,fog,Foggy,clear-night,Clear,6,33.67,62.11,32.83,,,,32.44,0.95,11,5,1.03,0.53,,0.0,0.0,-1000,0,0,0,1,0,0,2.0,2.0,0.0,1.0,2.0,35.0,2.0,2.0,18.0,4.0,16.0,9540.0,12.0,26.0,15.0
159,,35.081716,-85.05935799999999,2018-11-17,10:35:22,5921 Main St,33SR321001,7.013,COLLEGEDALE,fog,Foggy,clear-night,Clear,10,38.07,61.69,32.45,,,,37.15,0.96,11,5,1.1,0.48,,0.0,0.0,-1000,0,0,0,1,0,0,2.0,2.0,0.0,1.0,2.0,30.0,2.0,2.0,21.0,1.0,16.0,10040.0,11.0,20.0,15.0
160,,35.036959,-85.151823,2018-11-17,23:00:54,Gunbarrel Rd / Commons Blvd,330F888001,0.273,CHATTANOOGA,clear-night,Clear,clear-night,Clear,23,41.93,62.04,32.82,,,,38.79,0.89,11,5,3.47,0.53,,0.0,0.0,-1000,1,0,0,0,0,0,2.0,0.0,0.0,,2.0,,2.0,2.0,12.0,4.0,19.0,,,38.0,15.0
161,,35.121052,-85.23736600000001,2018-11-17,4:06:41,5100 HIGHWAY 153,33SR153001,8.07,CHATTANOOGA,fog,Foggy,clear-night,Clear,4,34.47,62.04,32.86,,,,32.96,0.94,11,5,1.15,0.56,,0.0,0.0,-1000,0,0,0,1,0,0,2.0,2.0,0.0,1.0,2.0,45.0,5.0,5.0,13.0,1.0,14.0,44820.0,11.0,36.0,15.0
162,,35.122929,-85.238444,2018-11-17,15:09:23,5120 Highway 153,3304133001,0.748,CHATTANOOGA,partly-cloudy-day,Partly Cloudy,clear-night,Clear,15,61.0,62.05,32.85,,,,38.36,0.43,11,5,6.92,0.56,,0.0,0.0,-1000,0,1,0,0,0,0,,2.0,0.0,,2.0,40.0,2.0,2.0,18.0,4.0,16.0,11250.0,13.0,12.0,15.0
163,,35.191390000000006,-85.344275,2018-11-17,8:20:06,2900 CORRAL RD,3301147001,11.459000000000001,HAMILTON COUNTY,fog,Foggy,clear-night,Clear,8,30.47,57.68,28.38,,,,30.47,1.0,11,5,0.81,0.56,,0.0,0.0,-1000,0,0,0,1,0,0,2.0,0.0,0.0,0.0,2.0,35.0,2.0,2.0,18.0,2.0,17.0,1720.0,11.0,20.0,15.0
164,,34.996081,-85.206737,2018-11-17,12:36:18,100 Interstate 75 Nb,33I0075001,0.7709999999999999,,partly-cloudy-day,Partly Cloudy,clear-night,Clear,12,52.52,62.33,32.7,,,,40.18,0.63,11,5,5.75,0.54,,0.0,0.0,-1000,0,1,0,0,0,0,1.0,2.0,2.0,1.0,2.0,55.0,6.0,8.0,2.0,1.0,11.0,108850.0,9.0,36.0,15.0
165,,35.054371,-85.191834,2018-11-17,14:38:12,5963 SHALLOWFORD RD,3303556001,5.531000000000001,CHATTANOOGA,partly-cloudy-day,Partly Cloudy,clear-night,Clear,14,59.73,62.07,32.83,,,,38.72,0.46,11,5,4.28,0.54,,0.0,0.0,-1000,0,1,0,0,0,0,2.0,2.0,0.0,1.0,2.0,45.0,4.0,4.0,18.0,4.0,14.0,16800.0,11.0,24.0,15.0
166,,35.334975,-85.129813,2018-11-17,22:46:38,13282 Dayton Pike,33SR029001,23.519000000000002,HAMILTON COUNTY,clear-night,Clear,clear-night,Clear,22,41.34,61.9,31.19,,,,39.09,0.92,11,5,8.45,0.45,,0.0,0.0,-1000,1,0,0,0,0,0,2.0,0.0,0.0,0.0,2.0,55.0,4.0,4.0,3.0,1.0,2.0,16310.0,11.0,24.0,15.0
167,,35.027668,-85.266441,2018-11-17,9:16:48,801 Dodds Ave,330D681001,0.011000000000000001,CHATTANOOGA,fog,Foggy,clear-night,Clear,9,34.88,62.08,32.52,,,,34.85,1.0,11,5,0.85,0.56,,0.0,0.0,-1000,0,0,0,1,0,0,2.0,7.0,0.0,1.0,2.0,,2.0,2.0,12.0,4.0,19.0,,,30.0,15.0
168,,35.016555,-85.01081500000001,2018-11-17,17:18:59,Apison Pike / Clonts Rd,33SR317001,12.497,HAMILTON COUNTY,clear-day,Clear,clear-night,Clear,17,59.21,61.52,31.99,,,,39.58,0.48,11,5,5.54,0.46,,0.0,0.0,-1000,1,0,0,0,0,0,2.0,0.0,0.0,,2.0,30.0,2.0,2.0,21.0,1.0,17.0,4340.0,11.0,22.0,15.0
169,,35.030975,-85.124943,2018-11-17,4:28:53,Rodeo Dr / Shallowford Rd,3303582001,0.524,HAMILTON COUNTY,fog,Foggy,clear-night,Clear,4,34.0,61.65,32.39,,,,32.92,0.96,11,5,0.86,0.51,,0.0,0.0,-1000,0,0,0,1,0,0,2.0,7.0,0.0,1.0,2.0,40.0,2.0,2.0,18.0,4.0,16.0,8020.0,11.0,20.0,15.0
170,,35.041218,-85.153379,2018-11-17,10:46:58,7304 Shallowford Rd,3301122001,0.16899999999999998,CHATTANOOGA,fog,Foggy,clear-night,Clear,10,38.73,62.05,32.83,,,,37.47,0.95,11,5,1.42,0.53,,0.0,0.0,-1000,0,0,0,1,0,0,2.0,2.0,0.0,1.0,2.0,40.0,4.0,4.0,18.0,4.0,14.0,13110.0,11.0,24.0,15.0
171,,35.235003999999996,-85.20224300000001,2018-11-17,1:19:02,9330 DAYTON PIKE,3302162001,4.191,SODDY DAISY,clear-night,Clear,clear-night,Clear,1,34.93,61.57,31.81,,,,33.21,0.93,11,5,4.59,0.52,,0.0,0.0,-1000,1,0,0,0,0,0,2.0,7.0,0.0,1.0,2.0,40.0,2.0,2.0,18.0,4.0,16.0,8730.0,12.0,12.0,15.0
172,,35.203114,-85.308465,2018-11-17,4:43:39,Sawyer Pike / Corral Rd,3304972001,5.729,HAMILTON COUNTY,fog,Foggy,clear-night,Clear,4,30.27,58.06,28.87,,,,30.27,1.0,11,5,1.04,0.56,,0.0,0.0,-1000,0,0,0,1,0,0,2.0,0.0,0.0,,2.0,35.0,2.0,2.0,18.0,2.0,16.0,1930.0,12.0,20.0,15.0
173,,35.017884,-85.173781,2018-11-17,2:35:05,E BRAINERD RD / N CONCORD RD,33SR320001,1.9780000000000002,CHATTANOOGA,fog,Foggy,clear-night,Clear,2,35.58,62.14,32.79,,,,34.02,0.94,11,5,1.55,0.53,,0.0,0.0,-1000,0,0,0,1,0,0,2.0,2.0,0.0,0.0,2.0,40.0,4.0,5.0,21.0,1.0,14.0,42060.0,10.0,24.0,15.0
174,,35.082749,-85.05854000000001,2018-11-17,18:50:10,LEE HWY / OOLTEWAH GEORGETOWN RD,3301145001,6.876,COLLEGEDALE,partly-cloudy-night,Partly Cloudy,clear-night,Clear,18,52.21,61.69,32.45,,,,41.74,0.67,11,5,6.57,0.48,,0.0,0.0,-1000,0,1,0,0,0,0,2.0,7.0,0.0,1.0,2.0,40.0,2.0,2.0,18.0,4.0,16.0,5580.0,11.0,22.0,15.0
175,,35.082076,-85.058449,2018-11-17,1:50:10,9300 LEE HWY,33SR321001,7.053,CHATTANOOGA,clear-night,Clear,clear-night,Clear,1,35.87,61.69,32.44,,,,33.52,0.91,11,5,4.19,0.48,,0.0,0.0,-1000,1,0,0,0,0,0,2.0,2.0,0.0,1.0,2.0,30.0,2.0,2.0,21.0,1.0,16.0,10040.0,11.0,11.0,15.0
176,,35.054862,-85.266879,2018-11-17,5:07:52,Sheridan Ave / Wilcox Blvd,3303556001,0.5660000000000001,CHATTANOOGA,fog,Foggy,clear-night,Clear,5,34.0,62.19,32.79,,,,32.13,0.93,11,5,1.84,0.58,,0.0,0.0,-1000,0,0,0,1,0,0,2.0,2.0,0.0,1.0,2.0,35.0,4.0,4.0,18.0,4.0,16.0,13030.0,11.0,48.0,15.0
177,,35.108129999999996,-85.271288,2018-11-17,1:16:57,3640 Hixson Pike,3303588001,1.825,CHATTANOOGA,fog,Foggy,clear-night,Clear,1,36.3,61.86,32.48,,,,33.71,0.9,11,5,1.78,0.57,,0.0,0.0,-1000,0,0,0,1,0,0,2.0,2.0,0.0,1.0,2.0,40.0,4.0,4.0,16.0,4.0,14.0,21540.0,12.0,24.0,15.0
178,,35.136132,-85.242141,2018-11-17,7:27:46,1966 Northpoint Blvd,33SR319001,4.683,CHATTANOOGA,fog,Foggy,clear-night,Clear,7,33.14,62.01,32.82,,,,32.96,0.99,11,5,0.85,0.56,,0.0,0.0,-1000,0,0,0,1,0,0,2.0,2.0,0.0,1.0,2.0,40.0,4.0,4.0,13.0,1.0,14.0,30820.0,10.0,24.0,15.0
179,,35.225233,-85.21736,2018-11-17,8:28:57,8783 Dayton Pike,330D604001,0.03,SODDY DAISY,fog,Foggy,clear-night,Clear,8,32.86,61.86,32.65,,,,32.61,0.99,11,5,0.32,0.53,,0.0,0.0,-1000,0,0,0,1,0,0,2.0,7.0,0.0,,2.0,20.0,2.0,2.0,12.0,4.0,19.0,,,16.0,15.0
180,,35.185629,-85.246926,2018-11-17,4:29:31,7035 Highway 153,33SR153001,12.692,CHATTANOOGA,fog,Foggy,clear-night,Clear,4,34.36,61.92,32.87,,,,32.63,0.93,11,5,1.03,0.55,,0.0,0.0,-1000,0,0,0,1,0,0,2.0,0.0,0.0,0.0,2.0,50.0,4.0,4.0,13.0,1.0,14.0,34480.0,11.0,24.0,15.0
181,,35.185629,-85.246926,2018-11-17,4:38:00,7035 Highway 153,33SR153001,12.692,CHATTANOOGA,fog,Foggy,clear-night,Clear,4,34.36,61.92,32.87,,,,32.63,0.93,11,5,1.03,0.55,,0.0,0.0,-1000,0,0,0,1,0,0,2.0,0.0,0.0,0.0,2.0,50.0,4.0,4.0,13.0,1.0,14.0,34480.0,11.0,24.0,15.0
182,,35.04831,-85.03770899999999,2018-11-17,3:11:13,College Dr E / Apison Pike,33SR317001,9.568999999999999,COLLEGEDALE,fog,Foggy,clear-night,Clear,3,34.66,61.57,32.24,,,,33.1,0.94,11,5,0.87,0.47,,0.0,0.0,-1000,0,0,0,1,0,0,2.0,5.0,0.0,,2.0,40.0,2.0,2.0,13.0,1.0,14.0,5600.0,11.0,22.0,15.0
183,,35.030081,-85.15314599999999,2018-11-17,1:22:49,2020 Gunbarrel Rd,3305787001,0.129,CHATTANOOGA,clear-night,Clear,clear-night,Clear,1,36.41,62.08,32.83,,,,33.84,0.9,11,5,3.79,0.53,,0.0,0.0,-1000,1,0,0,0,0,0,2.0,2.0,0.0,1.0,2.0,35.0,2.0,2.0,18.0,4.0,17.0,4510.0,0.0,12.0,15.0
184,,35.021141,-85.123746,2018-11-17,6:27:29,2100 Morris Hill Rd,3303582001,1.286,CHATTANOOGA,fog,Foggy,clear-night,Clear,6,33.15,61.58,32.28,,,,32.4,0.97,11,5,1.0,0.51,,0.0,0.0,-1000,0,0,0,1,0,0,2.0,7.0,0.0,1.0,2.0,40.0,2.0,2.0,18.0,4.0,16.0,8020.0,11.0,20.0,15.0
39,,35.016491,-85.28069,2018-11-18,0:45:34,18100 Interstate 24 Eb,33I0024002,10.06,CHATTANOOGA,fog,Foggy,clear-night,Clear,0,37.94,62.33,32.68,,,,34.4,0.87,11,6,1.59,0.57,NA,0.0,0.0,-1000,0,0,0,1,0,0,2.0,2.0,2.0,1.0,2.0,55.0,6.0,6.0,2.0,1.0,11.0,,,36.0,15.0
38,,35.016491,-85.28069,2018-11-18,10:46:16,18100 Interstate 24 Eb,33I0024002,10.06,CHATTANOOGA,partly-cloudy-day,Mostly Cloudy,partly-cloudy-night,Mostly Cloudy,10,42.63,61.66,36.42,,,,41.16,0.94,11,6,2.37,0.54,NA,0.0,0.0,-1000,0,1,0,0,0,0,2.0,2.0,2.0,1.0,2.0,55.0,6.0,6.0,2.0,1.0,11.0,,,36.0,15.0
37,,35.046473,-85.31425,2018-11-18,11:15:33,110 HIGHWAY 27 SB,33I0124001,1.359,CHATTANOOGA,partly-cloudy-day,Mostly Cloudy,fog,Foggy,11,47.9,61.49,36.65,,,,43.37,0.84,11,6,2.72,0.62,NA,0.0,0.0,-1000,0,1,0,0,0,0,2.0,2.0,2.0,1.0,2.0,55.0,5.0,7.0,2.0,1.0,11.0,73550.0,10,24.0,15.0
36,,35.066167,-85.306058,2018-11-18,13:05:39,413 FOREST AVE,330A282001,0.017,CHATTANOOGA,partly-cloudy-day,Mostly Cloudy,partly-cloudy-night,Mostly Cloudy,13,57.49,61.27,36.33,,,,44.21,0.61,11,6,6.44,0.57,NA,0.0,0.0,-1000,0,1,0,0,0,0,2.0,7.0,0.0,,2.0,,2.0,2.0,12.0,4.0,19.0,,,23.0,15.0
35,,35.012453,-85.260166,2018-11-18,19:50:14,3216 Gleason Dr,330B634001,0.362,EAST RIDGE,partly-cloudy-night,Partly Cloudy,partly-cloudy-night,Mostly Cloudy,19,50.45,60.98,35.77,,,,44.17,0.79,11,6,6.26,0.53,NA,0.0,0.0,-1000,0,1,0,0,0,0,2.0,7.0,0.0,1.0,2.0,,2.0,2.0,12.0,4.0,19.0,,,18.0,15.0
34,,35.061835,-85.133853,2018-11-18,21:03:01,7707 Lee Hwy,330E479001,0.063,CHATTANOOGA,partly-cloudy-night,Partly Cloudy,partly-cloudy-night,Mostly Cloudy,21,47.73,61.3,35.93,,,,43.11,0.84,11,6,5.75,0.46,NA,0.0,0.0,-1000,0,1,0,0,0,0,2.0,0.0,0.0,,2.0,,1.0,1.0,12.0,4.0,19.0,,,12.0,15.0
33,,35.082604,-85.079497,2018-11-18,3:00:18,940-1139 INTERSTATE 75 SB,33I0075001,10.88,CHATTANOOGA,clear-night,Clear,partly-cloudy-night,Partly Cloudy,3,37.27,61.2,35.68,,,,36.64,0.98,11,6,3.22,0.42,NA,0.0,0.0,-1000,1,0,0,0,0,0,2.0,0.0,2.0,0.0,2.0,65.0,8.0,8.0,2.0,1.0,11.0,62800.0,9,48.0,18.0
32,,35.059567,-85.131539,2018-11-18,23:57:01,Bonny Oaks Dr / Exit 7 Off Ramp Sb,33SR002001,20.512,CHATTANOOGA,partly-cloudy-night,Mostly Cloudy,partly-cloudy-night,Mostly Cloudy,23,44.47,61.19,35.89,,,,41.39,0.89,11,6,3.04,0.46,NA,0.0,0.0,-1000,0,1,0,0,0,0,2.0,2.0,0.0,1.0,2.0,45.0,4.0,6.0,13.0,1.0,14.0,23940.0,11,24.0,15.0
31,,35.021256,-85.320659,2018-11-18,10:42:57,3097 BROAD ST,330A862001,0.038,CHATTANOOGA,fog,Foggy,fog,Foggy,10,42.61,61.66,36.8,,,,41.07,0.94,11,6,1.24,0.62,NA,0.0,0.0,-1000,0,0,0,1,0,0,2.0,4.0,0.0,,2.0,30.0,2.0,2.0,12.0,4.0,19.0,,,30.0,15.0
30,,35.015893,-85.269873,2018-11-18,15:09:17,18170 INTERSTATE 24 EB,33I0024002,10.731,CHATTANOOGA,partly-cloudy-day,Mostly Cloudy,partly-cloudy-night,Mostly Cloudy,15,60.58,61.09,35.87,,,,43.08,0.52,11,6,3.56,0.54,NA,0.0,0.0,-1000,0,1,0,0,0,0,2.0,2.0,2.0,1.0,2.0,55.0,6.0,6.0,2.0,1.0,11.0,118650.0,9,36.0,15.0
29,,34.99451,-85.399774,2018-11-18,5:38:12,17200 Interstate 24 Wb,33I0024002,0.956,CHATTANOOGA,fog,Foggy,fog,Foggy,5,36.24,61.16,36.1,,,,36.24,1,11,6,0.73,0.62,NA,0.0,0.0,-1000,0,0,0,1,0,0,2.0,0.0,2.0,0.0,2.0,65.0,4.0,4.0,2.0,1.0,11.0,61260.0,9,24.0,15.0
28,,35.204831,-85.142517,2018-11-18,5:16:53,9100 HIXSON PIKE,33SR319001,12.894,LAKESITE,fog,Foggy,partly-cloudy-night,Mostly Cloudy,5,35.3,60.93,35.3,,,,35.09,0.99,11,6,0.83,0.42,NA,0.0,0.0,-1000,0,0,0,1,0,0,2.0,0.0,0.0,1.0,2.0,40.0,2.0,2.0,13.0,1.0,14.0,9530.0,12,22.0,15.0
27,,35.048697,-85.048683,2018-11-18,0:05:22,5002 University Dr,330F756001,0.043,COLLEGEDALE,fog,Foggy,clear-night,Clear,0,37.3,61.63,32.33,,,,34.13,0.88,11,6,1.99,0.48,NA,0.0,0.0,-1000,0,0,0,1,0,0,2.0,2.0,0.0,,2.0,,2.0,2.0,12.0,4.0,19.0,,,22.0,15.0
26,,35.052037,-85.313854,2018-11-18,18:23:33,150 HIGHWAY 27 SB,33I0124001,1.751,CHATTANOOGA,partly-cloudy-night,Partly Cloudy,partly-cloudy-night,Mostly Cloudy,18,55.77,61.48,36.5,,,,44.53,0.66,11,6,6.08,0.57,NA,0.0,0.0,-1000,0,1,0,0,0,0,2.0,2.0,2.0,1.0,2.0,55.0,4.0,4.0,2.0,1.0,11.0,75960.0,10,24.0,15.0
25,,35.028584,-85.156442,2018-11-18,6:39:37,1924 Gunbarrel Rd,3304987001,1.004,CHATTANOOGA,fog,Foggy,partly-cloudy-night,Mostly Cloudy,6,36.31,61.55,36.22,,,,35.79,0.98,11,6,0.94,0.48,NA,0.0,0.0,-1000,0,0,0,1,0,0,2.0,7.0,0.0,1.0,2.0,40.0,4.0,4.0,18.0,4.0,14.0,26160.0,11,24.0,15.0
24,,35.038832,-85.151801,2018-11-18,5:59:04,2275 Gunbarrel Rd,3304987001,1.758,CHATTANOOGA,fog,Foggy,partly-cloudy-night,Mostly Cloudy,5,36.18,61.5,36.17,,,,36.18,1,11,6,0.95,0.48,NA,0.0,0.0,-1000,0,0,0,1,0,0,2.0,7.0,0.0,1.0,2.0,40.0,4.0,4.0,18.0,4.0,14.0,26160.0,11,24.0,15.0
23,,35.038156,-85.151703,2018-11-18,14:59:29,2271 Gunbarrel Rd,3304987001,1.718,CHATTANOOGA,partly-cloudy-day,Partly Cloudy,partly-cloudy-night,Mostly Cloudy,14,60.38,61.5,36.17,,,,43.44,0.54,11,6,6.11,0.48,NA,0.0,0.0,-1000,0,1,0,0,0,0,2.0,7.0,0.0,1.0,2.0,40.0,4.0,4.0,18.0,4.0,14.0,26160.0,11,24.0,15.0
22,,35.021809,-85.297892,2018-11-18,5:01:34,18000 INTERSTATE 24 EB,33I0024002,8.966,CHATTANOOGA,fog,Foggy,partly-cloudy-night,Mostly Cloudy,5,36.65,61.67,36.65,,,,36.65,1,11,6,1.02,0.57,NA,0.0,0.0,-1000,0,0,0,1,0,0,2.0,2.0,2.0,1.0,2.0,55.0,6.0,8.0,2.0,1.0,11.0,120370.0,9,36.0,15.0
21,,35.057286,-85.231537,2018-11-18,0:12:08,2300 Green Forest Dr,3303577001,4.131,CHATTANOOGA,fog,Foggy,clear-night,Clear,0,37.95,62.01,32.65,,,,34.3,0.87,11,6,1.64,0.55,NA,0.0,0.0,-1000,0,0,0,1,0,0,2.0,7.0,0.0,1.0,2.0,35.0,2.0,2.0,18.0,4.0,16.0,4060.0,12,20.0,15.0
20,,35.082723,-85.078179,2018-11-18,6:07:23,1100 Interstate 75 Nb,33I0075001,10.954,CHATTANOOGA,fog,Foggy,partly-cloudy-night,Partly Cloudy,6,35.81,61.24,35.71,,,,35.7,1,11,6,0.93,0.41,NA,0.0,0.0,-1000,0,0,0,1,0,0,2.0,0.0,2.0,0.0,2.0,65.0,8.0,8.0,2.0,1.0,11.0,62800.0,9,48.0,18.0
19,,35.022734,-85.146245,2018-11-18,7:09:47,Igou Gap Rd / Gray Rd,3304988001,2.325,CHATTANOOGA,fog,Foggy,partly-cloudy-night,Mostly Cloudy,7,36.18,61.54,36.18,,,,35.62,0.98,11,6,0.88,0.47,NA,0.0,0.0,-1000,0,0,0,1,0,0,2.0,7.0,0.0,1.0,2.0,35.0,2.0,2.0,18.0,4.0,16.0,9540.0,12,16.0,15.0
18,,35.055408,-85.31554,2018-11-18,1:26:29,180 HIGHWAY 27 NB,33SR029001,0.059,CHATTANOOGA,fog,Foggy,fog,Foggy,1,40.33,61.58,36.73,,,,38.18,0.92,11,6,1.5,0.62,NA,0.0,0.0,-1000,0,0,0,1,0,0,2.0,2.0,2.0,1.0,2.0,55.0,6.0,6.0,13.0,1.0,12.0,74890.0,10,36.0,18.0
17,,35.024158,-85.246468,2018-11-18,15:30:53,N GERMANTOWN RD / BRAINERD RD,33SR002001,12.466,CHATTANOOGA,partly-cloudy-day,Mostly Cloudy,partly-cloudy-night,Mostly Cloudy,15,60.73,61.24,36.06,,,,43.07,0.52,11,6,3.62,0.53,NA,0.0,0.0,-1000,0,1,0,0,0,0,2.0,2.0,0.0,1.0,2.0,35.0,4.0,4.0,13.0,1.0,14.0,36770.0,12,24.0,15.0
16,,35.002787,-85.222533,2018-11-18,11:39:06,5084 S Terrace,3305771001,1.82,CHATTANOOGA,partly-cloudy-day,Partly Cloudy,partly-cloudy-night,Mostly Cloudy,11,47.86,61.73,36.39,,,,43.55,0.85,11,6,3.82,0.52,NA,0.0,0.0,-1000,0,1,0,0,0,0,2.0,0.0,0.0,,1.0,45.0,2.0,2.0,18.0,4.0,16.0,9090.0,0,36.0,15.0
15,,35.032753,-85.244876,2018-11-18,3:48:22,404 Tunnel Blvd,330B180001,0.524,CHATTANOOGA,clear-night,Clear,partly-cloudy-night,Mostly Cloudy,3,37.59,61.2,36.03,,,,37.19,0.98,11,6,3.45,0.53,NA,0.0,0.0,-1000,1,0,0,0,0,0,2.0,7.0,0.0,1.0,2.0,30.0,2.0,2.0,12.0,4.0,19.0,,,26.0,15.0
14,,34.990003,-85.199397,2018-11-18,4:04:08,Ringgold Rd / St Thomas St,33SR008001,0.723,EAST RIDGE,partly-cloudy-night,Partly Cloudy,partly-cloudy-night,Mostly Cloudy,4,37.55,61.76,36.39,,,,36.25,0.95,11,6,2.78,0.5,NA,0.0,0.0,-1000,0,1,0,0,0,0,2.0,2.0,0.0,1.0,2.0,35.0,4.0,4.0,21.0,1.0,16.0,10510.0,11,22.0,15.0
13,,35.123935,-85.23562,2018-11-18,6:41:08,Hamill Rd / Northpoint Blvd,3304133001,0.92,CHATTANOOGA,fog,Foggy,partly-cloudy-night,Mostly Cloudy,6,36.93,61.5,36.41,,,,36.46,0.98,11,6,0.86,0.52,NA,0.0,0.0,-1000,0,0,0,1,0,0,,7.0,0.0,,2.0,40.0,2.0,2.0,18.0,4.0,16.0,11250.0,13,12.0,15.0
12,,35.176178,-85.185787,2018-11-18,19:48:19,6522 Brigade Ln,330F997001,0.04,HAMILTON COUNTY,partly-cloudy-night,Partly Cloudy,partly-cloudy-night,Mostly Cloudy,19,51.33,61.68,36.32,,,,44.59,0.78,11,6,7.34,0.47,NA,0.0,0.0,-1000,0,1,0,0,0,0,2.0,0.0,0.0,1.0,2.0,,2.0,2.0,11.0,2.0,19.0,,,26.0,15.0
11,,35.099881,-85.1697,2018-11-18,20:14:51,5200 CHAMPION RD,3303597001,2.663,CHATTANOOGA,partly-cloudy-night,Partly Cloudy,partly-cloudy-night,Mostly Cloudy,20,47.19,61.05,36.0,,,,43.78,0.88,11,6,6.55,0.49,NA,0.0,0.0,-1000,0,1,0,0,0,0,2.0,0.0,0.0,1.0,2.0,30.0,2.0,2.0,18.0,4.0,17.0,3750.0,11,24.0,15.0
10,,35.012453,-85.260166,2018-11-18,6:36:00,3216 GLEASON DR,330B634001,0.362,EAST RIDGE,fog,Foggy,partly-cloudy-night,Mostly Cloudy,6,35.92,60.98,35.77,,,,35.92,1,11,6,0.86,0.53,NA,0.0,0.0,-1000,0,0,0,1,0,0,2.0,7.0,0.0,1.0,2.0,,2.0,2.0,12.0,4.0,19.0,,,18.0,15.0
9,,35.155038,-85.238882,2018-11-18,18:29:33,840 LOWER MILL RD,3305775001,0.282,CHATTANOOGA,partly-cloudy-night,Partly Cloudy,partly-cloudy-night,Mostly Cloudy,18,54.81,61.63,36.32,,,,44.79,0.69,11,6,7.12,0.51,NA,0.0,0.0,-1000,0,1,0,0,0,0,2.0,7.0,0.0,1.0,2.0,35.0,2.0,2.0,18.0,4.0,18.0,950.0,14,20.0,15.0
8,,35.024527,-85.275778,2018-11-18,6:47:47,E Main St / S Kelley St,33SR008001,6.125,CHATTANOOGA,fog,Foggy,partly-cloudy-night,Mostly Cloudy,6,36.77,61.61,36.65,,,,36.21,0.98,11,6,0.87,0.57,NA,0.0,0.0,-1000,0,0,0,1,0,0,2.0,2.0,0.0,1.0,2.0,35.0,4.0,4.0,21.0,1.0,16.0,6090.0,16,36.0,15.0
7,,35.210613,-85.202798,2018-11-18,8:06:26,432 N Bowman Rd,330F043001,0.143,SODDY DAISY,fog,Foggy,partly-cloudy-night,Mostly Cloudy,8,36.19,61.12,35.75,,,,35.27,0.96,11,6,1.13,0.47,NA,0.0,0.0,-1000,0,0,0,1,0,0,2.0,7.0,0.0,,2.0,,1.0,1.0,12.0,4.0,19.0,,,12.0,15.0
6,,34.988101,-85.205348,2018-11-18,14:12:18,1502 Mcdonald Rd,330B855001,0.098,EAST RIDGE,partly-cloudy-day,Partly Cloudy,partly-cloudy-night,Mostly Cloudy,14,60.64,61.75,36.38,,,,43.44,0.53,11,6,6.08,0.51,NA,0.0,0.0,-1000,0,1,0,0,0,0,2.0,4.0,0.0,,2.0,,2.0,2.0,12.0,4.0,19.0,,,22.0,15.0
5,,35.025278,-85.317391,2018-11-18,22:12:10,2700 Broad St,330A647001,0.42,CHATTANOOGA,partly-cloudy-night,Mostly Cloudy,fog,Foggy,22,47.77,61.65,36.79,,,,42.56,0.82,11,6,2.12,0.62,NA,0.0,0.0,-1000,0,1,0,0,0,0,2.0,7.0,0.0,,2.0,,2.0,2.0,12.0,4.0,19.0,,,30.0,15.0
4,,35.05224,-85.149942,2018-11-18,22:34:46,STANDIFER GAP RD / LEE HWY,33SR002001,19.276,CHATTANOOGA,partly-cloudy-night,Partly Cloudy,partly-cloudy-night,Mostly Cloudy,22,46.67,61.52,36.2,,,,42.13,0.84,11,6,3.25,0.47,NA,0.0,0.0,-1000,0,1,0,0,0,0,2.0,4.0,0.0,1.0,2.0,45.0,2.0,2.0,13.0,1.0,14.0,11910.0,12,12.0,15.0
3,,35.327819,-85.126958,2018-11-18,20:15:44,13020 MCGILL RD,330D834001,0.214,HAMILTON COUNTY,clear-night,Clear,partly-cloudy-night,Partly Cloudy,20,46.09,60.94,34.36,,,,43.73,0.91,11,6,10,0.34,NA,0.0,0.0,-1000,1,0,0,0,0,0,2.0,7.0,0.0,,2.0,30.0,2.0,2.0,11.0,2.0,9.0,,,14.0,6.0
2,,35.105121,-85.338749,2018-11-18,14:24:16,1100-1425 Signal Mountain Blvd,33SR008001,14.453,CHATTANOOGA,partly-cloudy-day,Mostly Cloudy,fog,Foggy,14,59.39,60.18,35.3,,,,43.13,0.55,11,6,2.91,0.62,NA,0.0,0.0,-1000,0,1,0,0,0,0,3.0,0.0,0.0,1.0,2.0,40.0,3.0,3.0,21.0,1.0,16.0,15340.0,11,22.0,15.0
1,,35.05224,-85.149942,2018-11-18,6:26:05,Lee Hwy / Standifer Gap Rd,33SR002001,19.276,CHATTANOOGA,fog,Foggy,partly-cloudy-night,Mostly Cloudy,6,36.3,61.52,36.2,,,,35.87,0.98,11,6,0.96,0.47,NA,0.0,0.0,-1000,0,0,0,1,0,0,2.0,4.0,0.0,1.0,2.0,45.0,2.0,2.0,13.0,1.0,14.0,11910.0,12,12.0,15.0
0,,35.053458,-85.151091,2018-11-18,4:29:54,7300 - 7399 Brookside Dr,330E503001,0.188,CHATTANOOGA,partly-cloudy-night,Partly Cloudy,partly-cloudy-night,Mostly Cloudy,4,37.3,61.53,36.2,,,,36.39,0.96,11,6,2.93,0.47,NA,0.0,0.0,-1000,0,1,0,0,0,0,2.0,7.0,0.0,,2.0,30.0,2.0,2.0,12.0,4.0,19.0,,,26.0,15.0
