,Accident,Latitude,Longitude,Date,Time,Address,Route,Log_Mile,City,Event,Conditions,EventBefore,ConditionBefore,Hour,Temperature,Temp_Max,Temp_Min,Monthly_Avg_Temp,Daily_Avg_Temp,Relative_Temp,Dewpoint,Humidity,Month,Weekday,Visibility,Cloud_Coverage,Precipitation_Type,Precipitation_Intensity,Precip_Intensity_Max,Precip_Intensity_Time,Clear,Cloudy,Rain,Fog,Snow,RainBefore,Terrain,Land_Use,Access_Control,Illumination,Operation,Speed_Limit,Thru_Lanes,Num_Lanes,Ad_Sys,Gov_Cont,Func_Class,AADT,DHV,Pavement_Width,Pavement_Type
0,,35.109673,-85.13543,2019-01-25,00:03:54,5728 Highway 58,330F305001,0.18,CHATTANOOGA,rain,Light Rain,clear-night,Clear,0,50.99,51.39,30.31,,,,49.49,0.95,1.0,4,2.68,0.62,rain,0.0045,0.043,1548306000,0.0,0.0,1.0,0.0,0.0,0.0,2.0,7.0,0.0,,2.0,25.0,2.0,2.0,11.0,2.0,19.0,,,26.0,15.0
1,,34.995722,-85.26782800000002,2019-01-25,01:12:10,S Seminole Dr / Crabtree Dr,330B332001,0.7090000000000001,EAST RIDGE,clear-night,Clear,partly-cloudy-night,Partly Cloudy,1,30.86,42.51,29.19,,,,25.48,0.8,1.0,4,4.08,0.4,,0.0,0.0,-1000,1.0,0.0,0.0,0.0,0.0,0.0,2.0,7.0,0.0,1.0,2.0,30.0,2.0,2.0,12.0,4.0,19.0,,,23.0,15.0
2,,35.187107,-85.189627,2019-01-25,06:09:47,7636 Middle Valley Rd,3300951001,2.571,HAMILTON COUNTY,partly-cloudy-night,Mostly Cloudy,partly-cloudy-night,Partly Cloudy,6,33.49,42.0,30.43,,,,22.85,0.65,1.0,4,7.25,0.42,,0.0,0.0,-1000,0.0,1.0,0.0,0.0,0.0,0.0,2.0,7.0,0.0,0.0,2.0,45.0,2.0,2.0,18.0,2.0,16.0,3790.0,13.0,20.0,15.0
3,,35.085614,-85.193416,2019-01-25,06:15:21,HIGHWAY 58 / TRAILWOOD DR,33SR058001,5.356,CHATTANOOGA,partly-cloudy-night,Mostly Cloudy,partly-cloudy-night,Partly Cloudy,6,33.18,42.87,30.01,,,,23.03,0.66,1.0,4,6.2,0.42,,0.0,0.0,-1000,0.0,1.0,0.0,0.0,0.0,0.0,2.0,2.0,0.0,1.0,2.0,40.0,6.0,6.0,13.0,1.0,14.0,39370.0,10.0,33.0,15.0
4,,35.12393,-85.068916,2019-01-25,06:45:03,7016 Snow Hill Rd,3302207001,2.958,HAMILTON COUNTY,partly-cloudy-night,Mostly Cloudy,partly-cloudy-night,Partly Cloudy,6,32.97,42.56,29.19,,,,23.98,0.69,1.0,4,6.55,0.4,,0.0,0.0,-1000,0.0,1.0,0.0,0.0,0.0,0.0,2.0,0.0,0.0,,2.0,40.0,2.0,2.0,18.0,2.0,17.0,7520.0,12.0,22.0,15.0
5,,35.124023,-85.069586,2019-01-25,06:46:35,7018 SNOW HILL RD,3302207001,2.965,HAMILTON COUNTY,partly-cloudy-night,Mostly Cloudy,partly-cloudy-night,Partly Cloudy,6,32.96,42.55,29.18,,,,23.98,0.69,1.0,4,6.55,0.4,,0.0,0.0,-1000,0.0,1.0,0.0,0.0,0.0,0.0,2.0,0.0,0.0,,2.0,40.0,2.0,2.0,18.0,2.0,17.0,7520.0,12.0,22.0,15.0
6,,35.033352,-85.313586,2019-01-25,07:22:06,W 20th St / Broad St,33SR017001,2.226,CHATTANOOGA,partly-cloudy-night,Mostly Cloudy,partly-cloudy-night,Partly Cloudy,7,32.19,43.42,30.52,,,,22.8,0.68,1.0,4,2.66,0.42,,0.0,0.0,-1000,0.0,1.0,0.0,0.0,0.0,0.0,2.0,2.0,0.0,1.0,2.0,35.0,4.0,4.0,13.0,1.0,14.0,12930.0,13.0,22.0,15.0
7,,34.990129,-85.035988,2019-01-25,07:23:42,Bill Jones Rd / London Ln,3305781001,1.649,HAMILTON COUNTY,partly-cloudy-night,Mostly Cloudy,clear-night,Clear,7,31.13,42.18,28.47,,,,23.1,0.72,1.0,4,6.24,0.37,,0.0,0.0,-1000,0.0,1.0,0.0,0.0,0.0,0.0,2.0,0.0,0.0,,2.0,45.0,2.0,2.0,18.0,2.0,18.0,2200.0,11.0,20.0,15.0
8,,35.033352,-85.313586,2019-01-25,07:29:55,W 20th St / Broad St,33SR017001,2.226,CHATTANOOGA,partly-cloudy-night,Mostly Cloudy,partly-cloudy-night,Partly Cloudy,7,32.19,43.42,30.52,,,,22.8,0.68,1.0,4,2.66,0.42,,0.0,0.0,-1000,0.0,1.0,0.0,0.0,0.0,0.0,2.0,2.0,0.0,1.0,2.0,35.0,4.0,4.0,13.0,1.0,14.0,12930.0,13.0,22.0,15.0
9,,35.08104,-85.236081,2019-01-25,07:33:58,2601 HARRISON PIKE,3304420001,1.156,CHATTANOOGA,partly-cloudy-night,Mostly Cloudy,partly-cloudy-night,Partly Cloudy,7,31.94,42.98,30.24,,,,22.78,0.69,1.0,4,5.81,0.42,,0.0,0.0,-1000,0.0,1.0,0.0,0.0,0.0,0.0,2.0,7.0,0.0,1.0,2.0,35.0,2.0,2.0,18.0,4.0,17.0,4300.0,14.0,24.0,15.0
10,,35.12393,-85.068916,2019-01-25,07:36:47,7016 Snow Hill Rd,3302207001,2.958,HAMILTON COUNTY,partly-cloudy-night,Mostly Cloudy,partly-cloudy-night,Partly Cloudy,7,31.85,42.56,29.19,,,,22.53,0.68,1.0,4,7.11,0.4,,0.0,0.0,-1000,0.0,1.0,0.0,0.0,0.0,0.0,2.0,0.0,0.0,,2.0,40.0,2.0,2.0,18.0,2.0,17.0,7520.0,12.0,22.0,15.0
11,,35.121548,-85.069603,2019-01-25,07:46:31,7000 Snow Hill Rd,3302207001,2.79,HAMILTON COUNTY,partly-cloudy-night,Mostly Cloudy,partly-cloudy-night,Partly Cloudy,7,31.84,42.56,29.19,,,,22.53,0.68,1.0,4,7.09,0.4,,0.0,0.0,-1000,0.0,1.0,0.0,0.0,0.0,0.0,2.0,0.0,0.0,,2.0,40.0,2.0,2.0,18.0,2.0,17.0,7520.0,12.0,22.0,15.0
12,,35.048435999999995,-85.293118,2019-01-25,07:50:57,320 PALMETTO ST,330A361001,0.358,CHATTANOOGA,partly-cloudy-night,Mostly Cloudy,partly-cloudy-night,Partly Cloudy,7,32.14,43.09,30.41,,,,22.8,0.68,1.0,4,5.57,0.42,,0.0,0.0,-1000,0.0,1.0,0.0,0.0,0.0,0.0,2.0,7.0,0.0,1.0,2.0,25.0,2.0,2.0,12.0,4.0,19.0,,,30.0,15.0
13,,35.111696,-85.23138900000002,2019-01-25,08:02:45,4601 N Access Rd,33SR153001,7.308,CHATTANOOGA,partly-cloudy-day,Partly Cloudy,partly-cloudy-night,Partly Cloudy,8,31.41,42.94,30.29,,,,22.89,0.7,1.0,4,7.03,0.42,,0.0,0.0,-1000,0.0,1.0,0.0,0.0,0.0,0.0,2.0,0.0,2.0,0.0,2.0,55.0,4.0,4.0,13.0,1.0,12.0,47830.0,11.0,24.0,15.0
14,,35.037941,-85.255832,2019-01-25,08:09:46,512 Latimore St,330B580001,0.35200000000000004,CHATTANOOGA,partly-cloudy-day,Partly Cloudy,partly-cloudy-night,Partly Cloudy,8,30.87,42.48,29.31,,,,23.07,0.72,1.0,4,5.78,0.4,,0.0,0.0,-1000,0.0,1.0,0.0,0.0,0.0,0.0,2.0,7.0,0.0,,2.0,,2.0,2.0,12.0,4.0,19.0,,,26.0,15.0
15,,35.03807800000001,-85.26715300000002,2019-01-25,08:33:49,350 - 399 N Lyerly St,330A679001,0.429,CHATTANOOGA,partly-cloudy-day,Partly Cloudy,partly-cloudy-night,Partly Cloudy,8,31.57,43.06,30.33,,,,22.96,0.7,1.0,4,5.6,0.42,,0.0,0.0,-1000,0.0,1.0,0.0,0.0,0.0,0.0,2.0,0.0,0.0,,2.0,30.0,2.0,2.0,12.0,4.0,19.0,,,30.0,15.0
16,,35.074376,-85.18010500000003,2019-01-25,08:54:45,6209 Bonny Oaks Dr,33SR317001,1.893,CHATTANOOGA,partly-cloudy-day,Partly Cloudy,partly-cloudy-night,Partly Cloudy,8,31.25,43.02,29.78,,,,23.08,0.71,1.0,4,6.05,0.4,,0.0,0.0,-1000,0.0,1.0,0.0,0.0,0.0,0.0,2.0,2.0,0.0,1.0,2.0,45.0,2.0,2.0,13.0,1.0,14.0,21980.0,11.0,22.0,15.0
17,,35.014349,-85.168745,2019-01-25,08:56:17,7249 Aventine Way,330E400001,0.217,CHATTANOOGA,partly-cloudy-day,Partly Cloudy,partly-cloudy-night,Partly Cloudy,8,31.32,42.98,29.58,,,,23.21,0.72,1.0,4,5.95,0.39,,0.0,0.0,-1000,0.0,1.0,0.0,0.0,0.0,0.0,2.0,0.0,0.0,,2.0,,2.0,2.0,12.0,4.0,19.0,,,18.0,15.0
18,,35.065371,-85.07299599999997,2019-01-25,09:03:36,5200 LITTLE DEBBIE PKWY,3304976001,0.183,COLLEGEDALE,partly-cloudy-day,Partly Cloudy,partly-cloudy-night,Partly Cloudy,9,31.47,42.53,29.02,,,,22.44,0.69,1.0,4,6.85,0.39,,0.0,0.0,-1000,0.0,1.0,0.0,0.0,0.0,0.0,2.0,0.0,0.0,,2.0,40.0,2.0,2.0,18.0,4.0,16.0,9860.0,10.0,24.0,15.0
19,,34.986197,-85.343967,2019-01-25,09:22:48,Ochs Hwy / Ochs Hwy Ext,33SR058001,0.17800000000000002,CHATTANOOGA,partly-cloudy-day,Partly Cloudy,partly-cloudy-night,Partly Cloudy,9,30.3,41.12,28.1,,,,22.27,0.72,1.0,4,2.96,0.42,,0.0,0.0,-1000,0.0,1.0,0.0,0.0,0.0,0.0,3.0,0.0,0.0,0.0,2.0,40.0,2.0,2.0,21.0,1.0,16.0,7030.0,12.0,22.0,15.0
20,,34.994618,-85.338814,2019-01-25,09:23:23,600 - 799 Ochs Hwy,33SR058001,0.944,CHATTANOOGA,partly-cloudy-day,Partly Cloudy,partly-cloudy-night,Partly Cloudy,9,30.7,41.52,28.52,,,,22.27,0.71,1.0,4,2.9,0.42,,0.0,0.0,-1000,0.0,1.0,0.0,0.0,0.0,0.0,3.0,0.0,0.0,0.0,2.0,40.0,2.0,2.0,21.0,1.0,16.0,7030.0,12.0,22.0,15.0
21,,34.9907,-85.34096,2019-01-25,09:23:37,600-799 Ochs Hwy,33SR058001,0.627,CHATTANOOGA,partly-cloudy-day,Partly Cloudy,partly-cloudy-night,Partly Cloudy,9,30.52,41.34,28.33,,,,22.27,0.71,1.0,4,2.93,0.42,,0.0,0.0,-1000,0.0,1.0,0.0,0.0,0.0,0.0,3.0,0.0,0.0,0.0,2.0,40.0,2.0,2.0,21.0,1.0,16.0,7030.0,12.0,22.0,15.0
22,,34.994618,-85.338814,2019-01-25,09:23:47,600 - 799 Ochs Hwy,33SR058001,0.944,CHATTANOOGA,partly-cloudy-day,Partly Cloudy,partly-cloudy-night,Partly Cloudy,9,30.7,41.52,28.52,,,,22.27,0.71,1.0,4,2.9,0.42,,0.0,0.0,-1000,0.0,1.0,0.0,0.0,0.0,0.0,3.0,0.0,0.0,0.0,2.0,40.0,2.0,2.0,21.0,1.0,16.0,7030.0,12.0,22.0,15.0
23,,35.019224,-85.267436,2019-01-25,09:33:46,18200 Interstate 24 Wb,33I0024002,10.993,CHATTANOOGA,partly-cloudy-day,Partly Cloudy,partly-cloudy-night,Partly Cloudy,9,31.92,42.53,29.31,,,,22.38,0.67,1.0,4,5.7,0.41,,0.0,0.0,-1000,0.0,1.0,0.0,0.0,0.0,0.0,2.0,0.0,2.0,1.0,2.0,55.0,6.0,6.0,2.0,1.0,11.0,118650.0,9.0,36.0,15.0
24,,34.98644,-85.343813,2019-01-25,09:37:03,795 OCHS HWY,33SR058001,0.196,CHATTANOOGA,partly-cloudy-day,Partly Cloudy,partly-cloudy-night,Partly Cloudy,9,30.32,41.13,28.11,,,,22.27,0.72,1.0,4,2.96,0.42,,0.0,0.0,-1000,0.0,1.0,0.0,0.0,0.0,0.0,3.0,0.0,0.0,0.0,2.0,40.0,2.0,2.0,21.0,1.0,16.0,7030.0,12.0,22.0,15.0
25,,35.263006,-85.17365,2019-01-25,09:49:44,170 TURNER RD,330D572001,0.139,SODDY DAISY,partly-cloudy-day,Partly Cloudy,partly-cloudy-night,Partly Cloudy,9,30.41,41.43,29.23,,,,21.07,0.68,1.0,4,10.0,0.42,,0.0,0.0,-1000,0.0,1.0,0.0,0.0,0.0,0.0,2.0,0.0,0.0,,2.0,,2.0,2.0,12.0,4.0,19.0,,,20.0,15.0
26,,35.054571,-85.200011,2019-01-25,10:19:22,5900 SHALLOWFORD RD,330D198001,0.301,CHATTANOOGA,clear-day,Clear,partly-cloudy-night,Partly Cloudy,10,33.62,43.18,29.96,,,,21.04,0.59,1.0,4,6.26,0.4,,0.0,0.0,-1000,1.0,0.0,0.0,0.0,0.0,0.0,2.0,2.0,0.0,,2.0,,2.0,2.0,12.0,4.0,19.0,,,28.0,15.0
27,,35.059567,-85.131539,2019-01-25,10:32:08,7550 BONNY OAKS DR,33SR002001,20.512,CHATTANOOGA,clear-day,Clear,partly-cloudy-night,Partly Cloudy,10,32.89,42.54,29.18,,,,21.21,0.62,1.0,4,6.15,0.39,,0.0,0.0,-1000,1.0,0.0,0.0,0.0,0.0,0.0,2.0,2.0,0.0,1.0,2.0,45.0,4.0,6.0,13.0,1.0,14.0,23940.0,11.0,24.0,15.0
28,,35.064688000000004,-85.126719,2019-01-25,10:32:39,1 - 9 Exit 7 Off Ramp Sb,33I0075001,7.912000000000001,CHATTANOOGA,clear-day,Clear,partly-cloudy-night,Partly Cloudy,10,32.62,42.31,28.95,,,,21.14,0.62,1.0,4,6.31,0.39,,0.0,0.0,-1000,1.0,0.0,0.0,0.0,0.0,0.0,2.0,4.0,2.0,0.0,2.0,65.0,8.0,9.0,2.0,1.0,11.0,74310.0,0.0,48.0,18.0
29,,35.055684,-85.136675,2019-01-25,10:33:23,700 Interstate 75 Nb,33I0075001,7.063,CHATTANOOGA,clear-day,Clear,partly-cloudy-night,Partly Cloudy,10,33.15,42.89,29.52,,,,21.25,0.61,1.0,4,6.14,0.39,,0.0,0.0,-1000,1.0,0.0,0.0,0.0,0.0,0.0,2.0,4.0,2.0,0.0,2.0,65.0,8.0,8.0,2.0,1.0,11.0,79990.0,11.0,48.0,15.0
30,,35.059763000000004,-85.13201,2019-01-25,10:35:01,7500-7549 BONNY OAKS DR,33SR002001,20.482,CHATTANOOGA,clear-day,Clear,partly-cloudy-night,Partly Cloudy,10,32.99,42.73,29.35,,,,21.25,0.62,1.0,4,6.15,0.39,,0.0,0.0,-1000,1.0,0.0,0.0,0.0,0.0,0.0,2.0,2.0,0.0,1.0,2.0,45.0,4.0,6.0,13.0,1.0,14.0,23940.0,11.0,24.0,15.0
31,,35.045946,-85.301604,2019-01-25,10:58:21,600 MCCALLIE AVE,3305001001,0.251,CHATTANOOGA,partly-cloudy-day,Partly Cloudy,partly-cloudy-night,Partly Cloudy,10,33.58,43.02,30.35,,,,20.78,0.59,1.0,4,6.35,0.42,,0.0,0.0,-1000,0.0,1.0,0.0,0.0,0.0,0.0,2.0,7.0,0.0,1.0,2.0,30.0,2.0,2.0,18.0,4.0,17.0,4740.0,12.0,21.0,15.0
32,,35.07467800000001,-85.320634,2019-01-25,11:13:33,900 Whitehall Rd,330C790001,0.175,CHATTANOOGA,partly-cloudy-day,Partly Cloudy,partly-cloudy-night,Partly Cloudy,11,34.15,42.56,30.03,,,,18.77,0.53,1.0,4,6.75,0.42,,0.0,0.0,-1000,0.0,1.0,0.0,0.0,0.0,0.0,2.0,2.0,0.0,1.0,2.0,,2.0,2.0,12.0,4.0,19.0,,,22.0,15.0
33,,35.009738,-85.273838,2019-01-25,11:20:48,2600 13th Ave,330A996001,0.239,CHATTANOOGA,partly-cloudy-day,Partly Cloudy,partly-cloudy-night,Partly Cloudy,11,34.5,42.64,29.39,,,,19.4,0.54,1.0,4,5.67,0.41,,0.0,0.0,-1000,0.0,1.0,0.0,0.0,0.0,0.0,2.0,7.0,0.0,1.0,2.0,,2.0,2.0,12.0,4.0,19.0,,,30.0,15.0
34,,35.122929,-85.238444,2019-01-25,11:35:49,5120 HIGHWAY 153,3304133001,0.748,CHATTANOOGA,partly-cloudy-day,Partly Cloudy,partly-cloudy-night,Partly Cloudy,11,34.07,43.0,30.38,,,,19.03,0.54,1.0,4,7.09,0.42,,0.0,0.0,-1000,0.0,1.0,0.0,0.0,0.0,0.0,,2.0,0.0,,2.0,40.0,2.0,2.0,18.0,4.0,16.0,11250.0,13.0,12.0,15.0
35,,35.085826000000004,-85.315965,2019-01-25,11:52:22,1899 Dayton Blvd,3304033001,0.002,RED BANK,partly-cloudy-day,Partly Cloudy,partly-cloudy-night,Partly Cloudy,11,34.37,42.8,30.28,,,,18.79,0.52,1.0,4,6.77,0.42,,0.0,0.0,-1000,0.0,1.0,0.0,0.0,0.0,0.0,2.0,7.0,0.0,1.0,2.0,25.0,2.0,2.0,18.0,4.0,17.0,700.0,11.0,24.0,15.0
36,,35.128721,-85.212704,2019-01-25,12:06:05,3100 Hamill Rd,3304133001,2.37,CHATTANOOGA,clear-day,Clear,partly-cloudy-night,Partly Cloudy,12,36.36,42.63,29.94,,,,16.59,0.44,1.0,4,6.93,0.42,,0.0,0.0,-1000,1.0,0.0,0.0,0.0,0.0,0.0,,,,,,,,,18.0,4.0,16.0,11250.0,13.0,20.0,15.0
37,,35.019984,-85.124348,2019-01-25,12:15:18,2007 Morris Hill Rd,330E343001,0.023,CHATTANOOGA,clear-day,Clear,partly-cloudy-night,Partly Cloudy,12,36.68,42.52,29.05,,,,17.94,0.46,1.0,4,6.01,0.39,,0.0,0.0,-1000,1.0,0.0,0.0,0.0,0.0,0.0,2.0,7.0,0.0,,2.0,,2.0,2.0,12.0,4.0,19.0,,,28.0,15.0
38,,35.010549,-85.192008,2019-01-25,12:21:58,250 Interstate 75 Sb,33I0075001,2.531,CHATTANOOGA,clear-day,Clear,partly-cloudy-night,Partly Cloudy,12,37.29,43.09,29.71,,,,17.64,0.44,1.0,4,6.11,0.4,,0.0,0.0,-1000,1.0,0.0,0.0,0.0,0.0,0.0,2.0,4.0,2.0,1.0,2.0,55.0,8.0,8.0,2.0,1.0,11.0,129750.0,9.0,48.0,18.0
39,,35.023643,-85.24641899999997,2019-01-25,12:29:57,3600 BRAINERD RD,3303577001,1.62,CHATTANOOGA,clear-day,Clear,partly-cloudy-night,Partly Cloudy,12,36.9,42.74,29.51,,,,17.16,0.44,1.0,4,6.26,0.4,,0.0,0.0,-1000,1.0,0.0,0.0,0.0,0.0,0.0,2.0,4.0,0.0,1.0,2.0,30.0,2.0,2.0,18.0,4.0,16.0,7060.0,10.0,10.0,15.0
40,,35.026485,-85.317785,2019-01-25,12:37:45,2627 BROAD ST,33SR002001,6.877000000000002,CHATTANOOGA,clear-day,Clear,partly-cloudy-night,Partly Cloudy,12,37.33,43.43,30.51,,,,16.3,0.42,1.0,4,3.28,0.42,,0.0,0.0,-1000,1.0,0.0,0.0,0.0,0.0,0.0,2.0,2.0,0.0,1.0,2.0,35.0,4.0,4.0,13.0,1.0,14.0,23280.0,11.0,24.0,15.0
41,,35.062666,-85.06619,2019-01-25,12:49:49,5071 OOLTEWAH RINGGOLD RD,33SR321001,5.626,COLLEGEDALE,clear-day,Clear,partly-cloudy-night,Partly Cloudy,12,36.44,42.53,28.99,,,,18.25,0.47,1.0,4,6.25,0.39,,0.0,0.0,-1000,1.0,0.0,0.0,0.0,0.0,0.0,2.0,7.0,0.0,1.0,2.0,35.0,2.0,2.0,21.0,1.0,16.0,10040.0,11.0,12.0,15.0
42,,35.040841,-85.159192,2019-01-25,13:00:28,2211 Overnite Dr,330E538001,0.124,CHATTANOOGA,partly-cloudy-day,Partly Cloudy,partly-cloudy-night,Partly Cloudy,13,38.87,43.04,29.69,,,,16.47,0.4,1.0,4,6.13,0.4,,0.0,0.0,-1000,0.0,1.0,0.0,0.0,0.0,0.0,,,,,,,,,,,,,,,
43,,35.04913,-85.314174,2019-01-25,13:10:41,130 Highway 27 Nb,33I0124001,1.544,CHATTANOOGA,partly-cloudy-day,Partly Cloudy,partly-cloudy-night,Partly Cloudy,13,38.83,43.26,30.41,,,,15.45,0.38,1.0,4,3.1,0.42,,0.0,0.0,-1000,0.0,1.0,0.0,0.0,0.0,0.0,2.0,2.0,2.0,1.0,2.0,55.0,4.0,6.0,2.0,1.0,11.0,75960.0,10.0,24.0,15.0
44,,35.050738,-85.213088,2019-01-25,13:27:55,4600 SHALLOWFORD RD,3303556001,4.129,CHATTANOOGA,partly-cloudy-day,Partly Cloudy,partly-cloudy-night,Partly Cloudy,13,39.02,43.23,30.02,,,,15.98,0.39,1.0,4,6.28,0.4,,0.0,0.0,-1000,0.0,1.0,0.0,0.0,0.0,0.0,2.0,2.0,0.0,1.0,2.0,40.0,4.0,4.0,18.0,4.0,14.0,22270.0,13.0,24.0,15.0
45,,34.992804,-85.388373,2019-01-25,13:42:10,1000 BIRMINGHAM HWY,330C387001,0.037000000000000005,CHATTANOOGA,partly-cloudy-day,Partly Cloudy,partly-cloudy-night,Partly Cloudy,13,38.88,43.14,30.17,,,,14.91,0.37,1.0,4,3.87,0.42,,0.0,0.0,-1000,0.0,1.0,0.0,0.0,0.0,0.0,2.0,5.0,0.0,,2.0,,2.0,2.0,12.0,4.0,19.0,,,32.0,15.0
46,,35.039516,-85.26753199999997,2019-01-25,13:52:02,2201 E 3rd St,33SR017001,3.749,CHATTANOOGA,partly-cloudy-day,Partly Cloudy,partly-cloudy-night,Partly Cloudy,13,38.9,43.06,30.34,,,,15.67,0.38,1.0,4,6.22,0.42,,0.0,0.0,-1000,0.0,1.0,0.0,0.0,0.0,0.0,2.0,2.0,0.0,1.0,2.0,30.0,4.0,4.0,13.0,1.0,16.0,8710.0,11.0,23.0,15.0
47,,35.144917,-85.22041999999998,2019-01-25,14:21:46,5604 HIXSON PIKE,330C196001,0.266,CHATTANOOGA,partly-cloudy-day,Partly Cloudy,partly-cloudy-night,Partly Cloudy,14,40.62,42.17,30.51,,,,13.82,0.33,1.0,4,6.89,0.42,,0.0,0.0,-1000,0.0,1.0,0.0,0.0,0.0,0.0,,,,,,,,,,,,,,,
48,,35.039964000000005,-85.268586,2019-01-25,14:32:30,2101 E 3rd St,33SR017001,3.68,CHATTANOOGA,partly-cloudy-day,Partly Cloudy,partly-cloudy-night,Partly Cloudy,14,40.74,43.07,30.35,,,,13.58,0.33,1.0,4,6.22,0.42,,0.0,0.0,-1000,0.0,1.0,0.0,0.0,0.0,0.0,2.0,2.0,0.0,1.0,2.0,30.0,4.0,4.0,13.0,1.0,16.0,8710.0,11.0,23.0,15.0
49,,35.017016,-85.180562,2019-01-25,14:37:15,6850 E BRAINERD RD,33SR320001,1.588,CHATTANOOGA,partly-cloudy-day,Partly Cloudy,partly-cloudy-night,Partly Cloudy,14,40.58,42.97,29.59,,,,14.12,0.34,1.0,4,6.1,0.4,,0.0,0.0,-1000,0.0,1.0,0.0,0.0,0.0,0.0,2.0,4.0,0.0,0.0,2.0,40.0,4.0,4.0,21.0,1.0,14.0,14820.0,11.0,24.0,15.0
50,,35.039964000000005,-85.268586,2019-01-25,14:53:47,2101 E 3rd St,33SR017001,3.68,CHATTANOOGA,partly-cloudy-day,Partly Cloudy,partly-cloudy-night,Partly Cloudy,14,40.74,43.07,30.35,,,,13.58,0.33,1.0,4,6.22,0.42,,0.0,0.0,-1000,0.0,1.0,0.0,0.0,0.0,0.0,2.0,2.0,0.0,1.0,2.0,30.0,4.0,4.0,13.0,1.0,16.0,8710.0,11.0,23.0,15.0
51,,35.059977,-85.031927,2019-01-25,15:03:45,Edgmon Rd / Tallant Rd,3301431001,0.0,COLLEGEDALE,clear-day,Clear,clear-night,Clear,15,41.25,42.21,28.57,,,,14.2,0.33,1.0,4,6.22,0.39,,0.0,0.0,-1000,1.0,0.0,0.0,0.0,0.0,0.0,,,,,,,,,,,,,,,
52,,34.996569,-85.289989,2019-01-25,15:38:05,CLIO AVE / E 41ST ST,330A940001,0.282,CHATTANOOGA,partly-cloudy-day,Partly Cloudy,partly-cloudy-night,Partly Cloudy,15,42.55,43.48,29.89,,,,12.49,0.29,1.0,4,3.85,0.41,,0.0,0.0,-1000,0.0,1.0,0.0,0.0,0.0,0.0,2.0,7.0,0.0,1.0,2.0,30.0,2.0,2.0,12.0,4.0,19.0,,,36.0,15.0
53,,35.098576,-85.327825,2019-01-25,16:03:31,713 MOUNTAIN CREEK RD,3301147001,0.009000000000000001,CHATTANOOGA,partly-cloudy-day,Partly Cloudy,partly-cloudy-night,Partly Cloudy,16,42.92,42.92,30.45,,,,10.17,0.26,1.0,4,3.77,0.42,,0.0,0.0,-1000,0.0,1.0,0.0,0.0,0.0,0.0,2.0,2.0,0.0,1.0,2.0,40.0,4.0,4.0,18.0,4.0,16.0,15150.0,12.0,12.0,15.0
54,,35.126864000000005,-85.04389,2019-01-25,16:13:48,7436 Ooltewah Georgetown Rd,3301145001,3.547,HAMILTON COUNTY,clear-day,Clear,clear-night,Clear,16,42.4,42.4,28.81,,,,13.09,0.3,1.0,4,7.49,0.4,,0.0,0.0,-1000,1.0,0.0,0.0,0.0,0.0,0.0,2.0,0.0,0.0,,2.0,50.0,2.0,2.0,18.0,2.0,16.0,9380.0,11.0,24.0,15.0
55,,35.127249,-85.043711,2019-01-25,16:15:29,7442 Ooltewah Georgetown Rd,330F261001,0.037000000000000005,HAMILTON COUNTY,clear-day,Clear,clear-night,Clear,16,42.41,42.41,28.81,,,,13.1,0.3,1.0,4,7.5,0.4,,0.0,0.0,-1000,1.0,0.0,0.0,0.0,0.0,0.0,2.0,7.0,0.0,1.0,2.0,,2.0,2.0,11.0,2.0,19.0,,,26.0,15.0
56,,35.084187,-85.319254,2019-01-25,16:17:36,117-149 SIGNAL MOUNTAIN RD,33SR008001,12.054,RED BANK,partly-cloudy-day,Partly Cloudy,partly-cloudy-night,Partly Cloudy,16,42.84,42.84,30.32,,,,10.11,0.26,1.0,4,3.8,0.42,,0.0,0.0,-1000,0.0,1.0,0.0,0.0,0.0,0.0,2.0,2.0,0.0,1.0,2.0,40.0,4.0,4.0,21.0,1.0,16.0,15570.0,11.0,22.0,15.0
57,,35.082701,-85.206056,2019-01-25,16:23:16,1-9 Exit Highway 58 S Off Ramp Nb,33SR058001,4.601,CHATTANOOGA,partly-cloudy-day,Partly Cloudy,partly-cloudy-night,Partly Cloudy,16,42.75,42.75,29.92,,,,10.0,0.26,1.0,4,3.87,0.42,,0.0,0.0,-1000,0.0,1.0,0.0,0.0,0.0,0.0,2.0,2.0,0.0,0.0,2.0,40.0,4.0,4.0,13.0,1.0,14.0,39370.0,10.0,24.0,15.0
58,,35.046726,-85.31440400000002,2019-01-25,16:26:26,W Martin Luther King Blvd / Exit W M L King Blvd E Off Ramp Sb,3303551001,0.444,CHATTANOOGA,partly-cloudy-day,Partly Cloudy,partly-cloudy-night,Partly Cloudy,16,43.29,43.29,30.43,,,,9.99,0.25,1.0,4,3.11,0.42,,0.0,0.0,-1000,0.0,1.0,0.0,0.0,0.0,0.0,2.0,2.0,0.0,1.0,2.0,30.0,4.0,4.0,16.0,4.0,14.0,9450.0,15.0,24.0,18.0
59,,35.231856,-85.193313,2019-01-25,16:35:00,9350-9399 Daisy Dallas Rd,3303632001,1.838,SODDY DAISY,partly-cloudy-day,Partly Cloudy,partly-cloudy-night,Partly Cloudy,16,41.88,41.88,29.59,,,,11.56,0.28,1.0,4,7.7,0.42,,0.0,0.0,-1000,0.0,1.0,0.0,0.0,0.0,0.0,3.0,0.0,0.0,,2.0,35.0,2.0,2.0,18.0,4.0,17.0,5370.0,12.0,20.0,15.0
60,,35.039243,-85.151301,2019-01-25,16:45:53,2277 GUNBARREL RD,3304987001,1.796,CHATTANOOGA,partly-cloudy-day,Partly Cloudy,partly-cloudy-night,Partly Cloudy,16,42.97,42.97,29.6,,,,10.59,0.26,1.0,4,4.45,0.39,,0.0,0.0,-1000,0.0,1.0,0.0,0.0,0.0,0.0,2.0,7.0,0.0,1.0,2.0,40.0,4.0,4.0,18.0,4.0,14.0,26160.0,11.0,24.0,15.0
61,,35.048084,-85.318113,2019-01-25,17:25:56,W Martin Luther King Blvd / Gateway Ave,3303551001,0.209,CHATTANOOGA,clear-day,Clear,partly-cloudy-night,Partly Cloudy,17,42.46,43.28,30.43,,,,9.21,0.25,1.0,4,3.12,0.42,,0.0,0.0,-1000,1.0,0.0,0.0,0.0,0.0,0.0,2.0,2.0,0.0,1.0,2.0,30.0,4.0,4.0,16.0,4.0,17.0,9450.0,15.0,24.0,15.0
62,,35.18462800000001,-85.25509699999998,2019-01-25,18:08:51,1230 Highway 27 Sb,33SR029001,10.494000000000002,HAMILTON COUNTY,clear-night,Clear,partly-cloudy-night,Partly Cloudy,18,38.63,41.99,30.24,,,,9.72,0.3,1.0,4,7.23,0.42,,0.0,0.0,-1000,1.0,0.0,0.0,0.0,0.0,0.0,2.0,0.0,2.0,0.0,2.0,65.0,4.0,4.0,13.0,1.0,12.0,24110.0,13.0,24.0,15.0
63,,35.05361,-85.257875,2019-01-25,18:09:03,Camden St / Arlington Ave,330B538001,0.257,CHATTANOOGA,clear-night,Clear,partly-cloudy-night,Partly Cloudy,18,39.0,42.86,30.14,,,,9.79,0.29,1.0,4,6.24,0.42,,0.0,0.0,-1000,1.0,0.0,0.0,0.0,0.0,0.0,2.0,7.0,0.0,1.0,2.0,,2.0,2.0,12.0,4.0,19.0,,,28.0,15.0
64,,35.062962,-85.298971,2019-01-25,18:24:00,200 - 299 Barton Ave,3303589001,0.203,CHATTANOOGA,clear-night,Clear,partly-cloudy-night,Partly Cloudy,18,39.01,42.86,30.22,,,,9.78,0.29,1.0,4,6.4,0.42,,0.0,0.0,-1000,1.0,0.0,0.0,0.0,0.0,0.0,2.0,7.0,0.0,1.0,2.0,35.0,3.0,3.0,16.0,4.0,14.0,14300.0,13.0,12.0,15.0
65,,35.034528,-85.15870600000002,2019-01-25,18:25:41,2100 Hamilton Place Blvd,3304986001,1.464,CHATTANOOGA,clear-night,Clear,partly-cloudy-night,Partly Cloudy,18,39.34,43.04,29.67,,,,10.69,0.3,1.0,4,6.11,0.39,,0.0,0.0,-1000,1.0,0.0,0.0,0.0,0.0,0.0,2.0,2.0,0.0,1.0,2.0,35.0,3.0,3.0,18.0,4.0,17.0,5180.0,13.0,24.0,15.0
66,,35.079466,-85.16885699999997,2019-01-25,18:55:12,7804 Holiday Hills Cir,330D248001,0.435,CHATTANOOGA,clear-night,Clear,partly-cloudy-night,Partly Cloudy,18,38.91,42.72,29.7,,,,10.36,0.3,1.0,4,6.45,0.4,,0.0,0.0,-1000,1.0,0.0,0.0,0.0,0.0,0.0,2.0,7.0,0.0,1.0,2.0,25.0,2.0,2.0,12.0,4.0,19.0,,,26.0,15.0
67,,35.085714,-85.32793000000002,2019-01-25,19:38:32,100-199 BAYLOR SCHOOL RD,330A044001,0.067,CHATTANOOGA,clear-night,Clear,partly-cloudy-night,Partly Cloudy,19,36.42,43.12,30.47,,,,9.64,0.32,1.0,4,3.03,0.42,,0.0,0.0,-1000,1.0,0.0,0.0,0.0,0.0,0.0,2.0,0.0,0.0,,2.0,,4.0,4.0,12.0,4.0,19.0,,,20.0,15.0
68,,35.052893,-85.254701,2019-01-25,19:55:58,2540 Hiwassee St,330B459001,0.08199999999999999,CHATTANOOGA,clear-night,Clear,partly-cloudy-night,Partly Cloudy,19,36.0,42.64,29.91,,,,10.7,0.34,1.0,4,5.67,0.42,,0.0,0.0,-1000,1.0,0.0,0.0,0.0,0.0,0.0,2.0,7.0,0.0,,2.0,,2.0,2.0,12.0,4.0,19.0,,,18.0,18.0
69,,35.074095,-85.198394,2019-01-25,20:17:11,400 HIGHWAY 153 NB,33SR153001,3.971,CHATTANOOGA,clear-night,Clear,partly-cloudy-night,Partly Cloudy,20,33.71,43.05,29.87,,,,13.0,0.42,1.0,4,6.33,0.4,,0.0,0.0,-1000,1.0,0.0,0.0,0.0,0.0,0.0,2.0,4.0,2.0,0.0,2.0,55.0,6.0,6.0,13.0,1.0,12.0,71090.0,11.0,36.0,15.0
70,,35.108558,-85.28690300000002,2019-01-25,20:50:23,HAYWOOD AVE / LUPTON DR,3304422001,3.474,CHATTANOOGA,clear-night,Clear,partly-cloudy-night,Partly Cloudy,20,33.7,42.68,30.15,,,,12.57,0.41,1.0,4,6.78,0.42,,0.0,0.0,-1000,1.0,0.0,0.0,0.0,0.0,0.0,2.0,7.0,0.0,1.0,2.0,35.0,2.0,2.0,18.0,4.0,16.0,4520.0,13.0,20.0,15.0
71,,35.108171,-85.288673,2019-01-25,20:52:38,3376 Easton Ave,3304422001,3.374,RED BANK,clear-night,Clear,partly-cloudy-night,Partly Cloudy,20,33.69,42.67,30.14,,,,12.58,0.41,1.0,4,6.78,0.42,,0.0,0.0,-1000,1.0,0.0,0.0,0.0,0.0,0.0,2.0,7.0,0.0,1.0,2.0,35.0,2.0,2.0,18.0,4.0,16.0,4520.0,13.0,20.0,15.0
72,,35.013733,-85.328307,2019-01-25,20:55:26,1900 - 2099 Cummings Hwy,33SR002001,5.7429999999999986,CHATTANOOGA,clear-night,Clear,partly-cloudy-night,Partly Cloudy,20,33.99,43.31,30.36,,,,12.8,0.41,1.0,4,3.42,0.42,,0.0,0.0,-1000,1.0,0.0,0.0,0.0,0.0,0.0,3.0,0.0,0.0,1.0,2.0,45.0,3.0,3.0,21.0,1.0,16.0,8730.0,16.0,24.0,15.0
73,,35.149699,-85.207726,2019-01-25,21:14:17,5922 Hixson Pike,33SR319001,7.091,CHATTANOOGA,clear-night,Clear,partly-cloudy-night,Partly Cloudy,21,31.06,42.09,30.46,,,,16.34,0.54,1.0,4,6.92,0.42,,0.0,0.0,-1000,1.0,0.0,0.0,0.0,0.0,0.0,2.0,4.0,0.0,1.0,2.0,45.0,4.0,4.0,13.0,1.0,14.0,21130.0,11.0,24.0,15.0
74,,35.305436,-85.161518,2019-01-25,21:38:47,1 - 9 Exit Back Valley Rd On Ramp Nb,3302219001,2.713,SODDY DAISY,clear-night,Clear,partly-cloudy-night,Partly Cloudy,21,28.94,41.23,28.73,,,,18.78,0.65,1.0,4,10.0,0.41,,0.0,0.0,-1000,1.0,0.0,0.0,0.0,0.0,0.0,2.0,7.0,0.0,1.0,2.0,35.0,2.0,2.0,18.0,4.0,16.0,290.0,14.0,12.0,15.0
75,,35.000640999999995,-85.25833,2019-01-25,23:23:17,3700 Ringgold Rd,330B998001,0.037000000000000005,EAST RIDGE,partly-cloudy-night,Partly Cloudy,partly-cloudy-night,Partly Cloudy,23,29.32,42.63,29.32,,,,16.11,0.57,1.0,4,5.7,0.4,,0.0,0.0,-1000,0.0,1.0,0.0,0.0,0.0,0.0,2.0,7.0,0.0,1.0,2.0,30.0,2.0,2.0,12.0,4.0,19.0,,,20.0,15.0
76,,35.073383,-85.325689,2019-01-26,01:08:02,968 Henderson Ave,330A035001,0.064,CHATTANOOGA,clear-night,Clear,clear-night,Clear,1,29.15,47.5,26.75,,,,15.22,0.55,1.0,5,3.6,0.45,,0.0,0.0,-1000,1.0,0.0,0.0,0.0,0.0,0.0,2.0,7.0,0.0,1.0,2.0,,2.0,2.0,12.0,4.0,19.0,,,18.0,15.0
77,,35.073383,-85.325689,2019-01-26,01:09:56,968 Henderson Ave,330A035001,0.064,CHATTANOOGA,clear-night,Clear,clear-night,Clear,1,29.15,47.5,26.75,,,,15.22,0.55,1.0,5,3.6,0.45,,0.0,0.0,-1000,1.0,0.0,0.0,0.0,0.0,0.0,2.0,7.0,0.0,1.0,2.0,,2.0,2.0,12.0,4.0,19.0,,,18.0,15.0
78,,35.075758,-85.30432900000001,2019-01-26,02:34:44,1047 Dallas Rd,3303590001,1.0070000000000001,CHATTANOOGA,clear-night,Clear,clear-night,Clear,2,27.84,47.24,26.4,,,,17.87,0.66,1.0,5,6.72,0.44,,0.0,0.0,-1000,1.0,0.0,0.0,0.0,0.0,0.0,2.0,2.0,0.0,1.0,2.0,35.0,4.0,4.0,18.0,4.0,16.0,9540.0,13.0,24.0,15.0
79,,35.088029,-85.296386,2019-01-26,02:54:54,907 Altamont Rd,3303596001,0.833,CHATTANOOGA,clear-night,Clear,clear-night,Clear,2,27.88,47.28,26.48,,,,17.86,0.66,1.0,5,6.74,0.43,,0.0,0.0,-1000,1.0,0.0,0.0,0.0,0.0,0.0,2.0,7.0,0.0,1.0,2.0,30.0,2.0,2.0,18.0,4.0,16.0,4920.0,12.0,24.0,15.0
80,,34.996668,-85.28359499999999,2019-01-26,03:48:12,Dodds Ave / E 40th St,330A920001,0.725,CHATTANOOGA,partly-cloudy-night,Partly Cloudy,clear-night,Clear,3,28.28,47.89,26.11,,,,18.06,0.65,1.0,5,3.84,0.42,,0.0,0.0,-1000,0.0,1.0,0.0,0.0,0.0,0.0,2.0,7.0,0.0,1.0,2.0,,2.0,2.0,12.0,4.0,19.0,,,26.0,15.0
81,,35.095690999999995,-85.188317,2019-01-26,04:12:15,WEBB RD / HARBOR HILLS RD,3303597001,0.735,CHATTANOOGA,partly-cloudy-night,Mostly Cloudy,clear-night,Clear,4,27.01,47.61,26.42,,,,17.69,0.67,1.0,5,6.42,0.43,,0.0,0.0,-1000,0.0,1.0,0.0,0.0,0.0,0.0,2.0,7.0,0.0,1.0,2.0,30.0,2.0,2.0,18.0,4.0,17.0,4670.0,11.0,18.0,15.0
82,,35.086578,-85.300523,2019-01-26,04:37:14,1800 PINE BREEZE RD,330C776001,0.616,CHATTANOOGA,partly-cloudy-night,Mostly Cloudy,clear-night,Clear,4,26.6,47.27,26.46,,,,17.26,0.67,1.0,5,6.74,0.43,,0.0,0.0,-1000,0.0,1.0,0.0,0.0,0.0,0.0,2.0,7.0,0.0,1.0,2.0,15.0,2.0,2.0,12.0,4.0,19.0,,,20.0,15.0
83,,35.073644,-85.19034,2019-01-26,08:08:02,Bonny Oaks Dr / Jersey Pike,33SR317001,1.308,CHATTANOOGA,cloudy,Overcast,clear-night,Clear,8,29.65,47.81,26.29,,,,21.23,0.7,1.0,5,6.02,0.39,,0.0,0.0,-1000,0.0,1.0,0.0,0.0,0.0,0.0,2.0,2.0,0.0,1.0,2.0,45.0,4.0,4.0,13.0,1.0,14.0,21980.0,11.0,24.0,15.0
84,,35.073843,-85.112125,2019-01-26,08:14:30,900 Interstate 75 Sb,33I0075001,8.945,CHATTANOOGA,cloudy,Overcast,clear-night,Clear,8,28.72,47.05,25.29,,,,21.41,0.74,1.0,5,6.72,0.38,,0.0,0.0,-1000,0.0,1.0,0.0,0.0,0.0,0.0,2.0,0.0,2.0,1.0,2.0,65.0,8.0,10.0,2.0,1.0,11.0,74310.0,0.0,48.0,18.0
85,,35.122999,-85.121616,2019-01-26,08:46:33,6300 HARRISON OOLTEWAH RD,3304141001,0.302,HAMILTON COUNTY,cloudy,Overcast,clear-night,Clear,8,29.81,47.41,26.27,,,,21.25,0.7,1.0,5,6.7,0.42,,0.0,0.0,-1000,0.0,1.0,0.0,0.0,0.0,0.0,2.0,7.0,0.0,0.0,2.0,30.0,2.0,2.0,18.0,2.0,18.0,5020.0,13.0,20.0,15.0
86,,35.030545000000004,-85.189874,2019-01-26,09:08:42,6101 Lee Hwy,330B598001,0.11800000000000001,CHATTANOOGA,partly-cloudy-day,Mostly Cloudy,clear-night,Clear,9,31.41,47.98,26.21,,,,21.4,0.66,1.0,5,6.16,0.39,,0.0,0.0,-1000,0.0,1.0,0.0,0.0,0.0,0.0,2.0,2.0,0.0,1.0,2.0,,4.0,4.0,12.0,4.0,19.0,,,28.0,15.0
87,,35.012865999999995,-85.184238,2019-01-26,11:18:48,300 Interstate 75 Sb,33I0075001,3.01,CHATTANOOGA,partly-cloudy-day,Mostly Cloudy,clear-night,Clear,11,38.63,47.94,26.07,,,,24.04,0.55,1.0,5,5.91,0.38,,0.0,0.0,-1000,0.0,1.0,0.0,0.0,0.0,0.0,2.0,2.0,2.0,0.0,2.0,55.0,8.0,8.0,2.0,1.0,11.0,129750.0,9.0,48.0,18.0
88,,35.018989000000005,-85.137047,2019-01-26,11:27:07,8200 Igou Gap Rd,330E590001,0.024,CHATTANOOGA,partly-cloudy-day,Partly Cloudy,clear-night,Clear,11,38.48,47.87,25.94,,,,24.02,0.56,1.0,5,6.02,0.38,,0.0,0.0,-1000,0.0,1.0,0.0,0.0,0.0,0.0,2.0,7.0,0.0,1.0,2.0,,2.0,2.0,12.0,4.0,19.0,,,14.0,15.0
89,,35.040805999999996,-85.294872,2019-01-26,11:28:18,E Martin Luther King Blvd / Park Ave,330A427001,0.067,CHATTANOOGA,partly-cloudy-day,Mostly Cloudy,clear-night,Clear,11,38.75,47.72,26.66,,,,23.76,0.54,1.0,5,5.54,0.44,,0.0,0.0,-1000,0.0,1.0,0.0,0.0,0.0,0.0,2.0,0.0,0.0,,2.0,,2.0,2.0,12.0,4.0,19.0,,,32.0,15.0
90,,35.041303000000006,-85.153824,2019-01-26,11:33:40,7300 Shallowford Rd,3304986001,2.1630000000000003,CHATTANOOGA,partly-cloudy-day,Partly Cloudy,clear-night,Clear,11,38.53,47.89,26.09,,,,23.92,0.55,1.0,5,6.02,0.38,,0.0,0.0,-1000,0.0,1.0,0.0,0.0,0.0,0.0,2.0,2.0,0.0,1.0,2.0,35.0,3.0,3.0,18.0,4.0,17.0,5180.0,13.0,12.0,15.0
91,,35.140562,-85.246211,2019-01-26,11:33:57,5450 Highway 153,330C931001,0.5660000000000001,CHATTANOOGA,partly-cloudy-day,Mostly Cloudy,clear-night,Clear,11,38.7,47.78,27.31,,,,23.45,0.54,1.0,5,7.02,0.43,,0.0,0.0,-1000,0.0,1.0,0.0,0.0,0.0,0.0,2.0,0.0,0.0,,2.0,,2.0,2.0,12.0,4.0,19.0,,,24.0,15.0
92,,35.03179,-85.1835,2019-01-26,11:36:00,2-8 Exit Lee Hwy Off Ramp Sb,33SR002001,16.897000000000002,CHATTANOOGA,partly-cloudy-day,Mostly Cloudy,clear-night,Clear,11,38.47,47.78,26.01,,,,23.96,0.56,1.0,5,5.94,0.39,,0.0,0.0,-1000,0.0,1.0,0.0,0.0,0.0,0.0,2.0,2.0,0.0,1.0,2.0,40.0,4.0,5.0,13.0,1.0,14.0,24540.0,10.0,24.0,15.0
93,,34.986565999999996,-85.212925,2019-01-26,12:25:00,1700 ADAIR AVE,330B867001,0.221,EAST RIDGE,clear-day,Clear,clear-night,Clear,12,41.92,48.05,26.0,,,,24.66,0.5,1.0,5,6.09,0.38,,0.0,0.0,-1000,1.0,0.0,0.0,0.0,0.0,0.0,2.0,7.0,0.0,1.0,2.0,30.0,2.0,2.0,12.0,4.0,19.0,,,20.0,15.0
94,,35.038354999999996,-85.154331,2019-01-26,12:41:27,2220 Hamilton Place Blvd,330F888001,0.10400000000000001,CHATTANOOGA,clear-day,Clear,clear-night,Clear,12,41.7,47.9,26.09,,,,24.48,0.5,1.0,5,6.12,0.38,,0.0,0.0,-1000,1.0,0.0,0.0,0.0,0.0,0.0,2.0,0.0,0.0,,2.0,,2.0,2.0,12.0,4.0,19.0,,,38.0,15.0
95,,35.019628999999995,-85.270877,2019-01-26,13:52:10,1700 DODDS AVE,330A545001,0.33799999999999997,CHATTANOOGA,partly-cloudy-day,Mostly Cloudy,clear-night,Clear,13,43.58,47.6,25.97,,,,24.98,0.48,1.0,5,6.31,0.4,,0.0,0.0,-1000,0.0,1.0,0.0,0.0,0.0,0.0,2.0,0.0,0.0,,2.0,,2.0,2.0,12.0,4.0,19.0,,,24.0,15.0
96,,34.989214000000004,-85.190676,2019-01-26,13:55:05,728 Frawley Rd,330B828001,0.035,EAST RIDGE,partly-cloudy-day,Partly Cloudy,clear-night,Clear,13,43.71,47.93,25.94,,,,24.74,0.47,1.0,5,6.05,0.38,,0.0,0.0,-1000,0.0,1.0,0.0,0.0,0.0,0.0,2.0,0.0,0.0,,2.0,,2.0,2.0,12.0,4.0,19.0,,,28.0,15.0
97,,35.152621999999994,-85.248919,2019-01-26,13:59:35,5700-5775 Highway 153,33SR153001,10.4,CHATTANOOGA,partly-cloudy-day,Mostly Cloudy,clear-night,Clear,13,43.09,47.64,25.84,,,,25.22,0.49,1.0,5,6.97,0.43,,0.0,0.0,-1000,0.0,1.0,0.0,0.0,0.0,0.0,2.0,2.0,0.0,1.0,2.0,45.0,6.0,6.0,13.0,1.0,14.0,32140.0,11.0,36.0,15.0
98,,35.151779,-85.248981,2019-01-26,14:00:06,5700 Highway 153,330C903001,0.005,CHATTANOOGA,partly-cloudy-day,Mostly Cloudy,clear-night,Clear,14,44.66,47.66,25.86,,,,25.14,0.46,1.0,5,6.96,0.43,,0.0,0.0,-1000,0.0,1.0,0.0,0.0,0.0,0.0,2.0,7.0,0.0,1.0,2.0,,2.0,2.0,12.0,4.0,19.0,,,26.0,15.0
99,,35.139614,-85.24887,2019-01-26,14:14:29,5435 Highway 153,33SR153001,9.509,CHATTANOOGA,partly-cloudy-day,Mostly Cloudy,clear-night,Clear,14,44.92,47.74,27.28,,,,25.12,0.45,1.0,5,6.87,0.43,,0.0,0.0,-1000,0.0,1.0,0.0,0.0,0.0,0.0,2.0,2.0,0.0,1.0,2.0,45.0,6.0,6.0,13.0,1.0,14.0,45300.0,11.0,36.0,15.0
100,,35.127545,-85.147885,2019-01-26,14:37:30,Harrison Pike / Vincent Rd,3304137001,2.438,HAMILTON COUNTY,partly-cloudy-day,Partly Cloudy,clear-night,Clear,14,44.74,47.79,26.85,,,,24.75,0.45,1.0,5,6.71,0.42,,0.0,0.0,-1000,0.0,1.0,0.0,0.0,0.0,0.0,2.0,0.0,0.0,,2.0,40.0,2.0,2.0,18.0,2.0,18.0,3240.0,11.0,20.0,15.0
101,,35.152044000000004,-85.218104,2019-01-26,15:08:55,5723 Hixson Pike,330D031001,0.07200000000000001,CHATTANOOGA,partly-cloudy-day,Partly Cloudy,clear-night,Clear,15,46.44,47.88,26.02,,,,24.67,0.42,1.0,5,6.95,0.43,,0.0,0.0,-1000,0.0,1.0,0.0,0.0,0.0,0.0,2.0,7.0,0.0,1.0,2.0,,2.0,2.0,12.0,4.0,19.0,,,34.0,15.0
102,,35.082749,-85.05854000000001,2019-01-26,15:25:51,Lee Hwy / Ooltewah Georgetown Rd,3301145001,6.876,COLLEGEDALE,partly-cloudy-day,Partly Cloudy,clear-night,Clear,15,46.07,47.62,25.72,,,,24.29,0.42,1.0,5,6.37,0.37,,0.0,0.0,-1000,0.0,1.0,0.0,0.0,0.0,0.0,2.0,7.0,0.0,1.0,2.0,40.0,2.0,2.0,18.0,4.0,16.0,5580.0,11.0,22.0,15.0
103,,35.192806,-85.188343,2019-01-26,15:42:02,7800 MIDDLE VALLEY RD,3303591001,3.4360000000000004,HAMILTON COUNTY,partly-cloudy-day,Partly Cloudy,clear-night,Clear,15,46.29,47.73,25.71,,,,24.7,0.42,1.0,5,7.3,0.42,,0.0,0.0,-1000,0.0,1.0,0.0,0.0,0.0,0.0,2.0,0.0,0.0,,2.0,40.0,2.0,2.0,18.0,2.0,16.0,5900.0,12.0,20.0,15.0
104,,35.068054,-85.196172,2019-01-26,15:49:19,350 HIGHWAY 153 SB,33SR153001,3.537,CHATTANOOGA,partly-cloudy-day,Partly Cloudy,clear-night,Clear,15,46.51,47.84,26.31,,,,24.77,0.42,1.0,5,6.3,0.39,,0.0,0.0,-1000,0.0,1.0,0.0,0.0,0.0,0.0,2.0,4.0,2.0,0.0,2.0,55.0,6.0,8.0,13.0,1.0,12.0,71090.0,11.0,36.0,15.0
105,,35.176525,-85.327506,2019-01-26,16:04:48,1900 - 2099 Hollister Rd,330C565001,0.3,HAMILTON COUNTY,partly-cloudy-day,Partly Cloudy,clear-night,Clear,16,43.34,43.34,21.66,,,,23.9,0.46,1.0,5,7.22,0.43,,0.0,0.0,-1000,0.0,1.0,0.0,0.0,0.0,0.0,3.0,0.0,0.0,,2.0,25.0,2.0,2.0,11.0,2.0,19.0,,,18.0,15.0
106,,35.175133,-85.328779,2019-01-26,16:04:54,3708 Taft Hwy,33SR008001,21.500999999999998,HAMILTON COUNTY,partly-cloudy-day,Partly Cloudy,clear-night,Clear,16,43.3,43.3,21.63,,,,23.89,0.46,1.0,5,7.21,0.43,,0.0,0.0,-1000,0.0,1.0,0.0,0.0,0.0,0.0,2.0,0.0,0.0,1.0,2.0,45.0,2.0,2.0,21.0,1.0,16.0,7590.0,11.0,24.0,15.0
107,,35.023205,-85.102176,2019-01-26,17:04:03,2493 Shenandoah Dr,330E269001,0.20600000000000002,HAMILTON COUNTY,partly-cloudy-day,Partly Cloudy,clear-night,Clear,17,47.19,47.19,25.23,,,,24.35,0.4,1.0,5,5.98,0.37,,0.0,0.0,-1000,0.0,1.0,0.0,0.0,0.0,0.0,2.0,7.0,0.0,1.0,2.0,,2.0,2.0,11.0,2.0,19.0,,,26.0,15.0
108,,35.053585,-85.306529,2019-01-26,17:09:24,E 3rd St / Lookout St,3303549001,0.66,CHATTANOOGA,partly-cloudy-day,Partly Cloudy,clear-night,Clear,17,47.76,47.76,26.77,,,,24.17,0.39,1.0,5,6.39,0.44,,0.0,0.0,-1000,0.0,1.0,0.0,0.0,0.0,0.0,2.0,2.0,0.0,1.0,1.0,30.0,3.0,3.0,16.0,4.0,14.0,5000.0,14.0,30.0,15.0
109,,35.010971000000005,-85.22255899999999,2019-01-26,17:16:18,5311 Brainerd Rd,33SR002001,14.154000000000002,CHATTANOOGA,partly-cloudy-day,Partly Cloudy,clear-night,Clear,17,47.98,47.98,26.24,,,,24.53,0.39,1.0,5,6.17,0.39,,0.0,0.0,-1000,0.0,1.0,0.0,0.0,0.0,0.0,2.0,2.0,0.0,1.0,2.0,40.0,6.0,6.0,13.0,1.0,14.0,34380.0,11.0,30.0,15.0
110,,35.024501,-85.15562800000001,2019-01-26,17:20:18,1816 Gunbarrel Rd,3304988001,2.853,CHATTANOOGA,partly-cloudy-day,Partly Cloudy,clear-night,Clear,17,47.93,47.93,26.06,,,,24.26,0.39,1.0,5,6.08,0.38,,0.0,0.0,-1000,0.0,1.0,0.0,0.0,0.0,0.0,2.0,2.0,0.0,1.0,2.0,35.0,2.0,2.0,18.0,4.0,16.0,9540.0,12.0,26.0,15.0
111,,35.105346000000004,-85.051815,2019-01-26,17:39:26,1180-1329 Interstate 75 Sb,33I0075001,13.26,CHATTANOOGA,clear-day,Clear,clear-night,Clear,17,47.67,47.67,25.85,,,,24.3,0.4,1.0,5,6.97,0.39,,0.0,0.0,-1000,1.0,0.0,0.0,0.0,0.0,0.0,2.0,0.0,2.0,0.0,2.0,65.0,4.0,4.0,2.0,1.0,11.0,62350.0,9.0,24.0,15.0
112,,35.105449,-85.05176800000001,2019-01-26,17:39:28,1330 INTERSTATE 75 SB,33I0075001,13.267999999999999,HAMILTON COUNTY,clear-day,Clear,clear-night,Clear,17,47.67,47.67,25.84,,,,24.3,0.4,1.0,5,6.97,0.39,,0.0,0.0,-1000,1.0,0.0,0.0,0.0,0.0,0.0,2.0,0.0,2.0,0.0,2.0,65.0,4.0,4.0,2.0,1.0,11.0,62350.0,9.0,24.0,15.0
113,,35.10425,-85.052319,2019-01-26,17:44:14,1320 Interstate 75 Sb,33I0075001,13.179,CHATTANOOGA,clear-day,Clear,clear-night,Clear,17,47.67,47.67,25.85,,,,24.3,0.4,1.0,5,6.96,0.39,,0.0,0.0,-1000,1.0,0.0,0.0,0.0,0.0,0.0,2.0,0.0,2.0,0.0,2.0,65.0,4.0,4.0,2.0,1.0,11.0,62350.0,9.0,24.0,15.0
114,,35.207632000000004,-85.298261,2019-01-26,19:11:27,Sawyer Pike / Vandergriff Rd,3304972001,5.021,HAMILTON COUNTY,clear-night,Clear,clear-night,Clear,19,38.4,43.51,21.73,,,,26.58,0.62,1.0,5,7.42,0.43,,0.0,0.0,-1000,1.0,0.0,0.0,0.0,0.0,0.0,2.0,0.0,0.0,,2.0,35.0,2.0,2.0,18.0,2.0,16.0,1930.0,12.0,20.0,15.0
115,,35.082488,-85.028695,2019-01-26,19:55:24,10300 Lee Hwy,330D992001,0.001,COLLEGEDALE,clear-night,Clear,clear-night,Clear,19,40.8,47.21,25.3,,,,26.27,0.56,1.0,5,6.8,0.37,,0.0,0.0,-1000,1.0,0.0,0.0,0.0,0.0,0.0,2.0,7.0,0.0,,2.0,35.0,2.0,2.0,12.0,4.0,19.0,,,18.0,15.0
116,,35.017223,-85.17855899999999,2019-01-26,19:56:04,6880 E BRAINERD RD,33SR320001,1.702,CHATTANOOGA,clear-night,Clear,clear-night,Clear,19,41.83,47.9,26.04,,,,26.18,0.53,1.0,5,6.1,0.38,,0.0,0.0,-1000,1.0,0.0,0.0,0.0,0.0,0.0,2.0,4.0,0.0,0.0,2.0,40.0,4.0,5.0,21.0,1.0,14.0,42060.0,10.0,24.0,15.0
117,,35.014287,-85.181327,2019-01-26,19:57:00,1 - 9 Exit 3a Off Ramp Nb,33I0075001,3.2060000000000004,CHATTANOOGA,clear-night,Clear,clear-night,Clear,19,41.83,47.9,26.03,,,,26.18,0.53,1.0,5,6.1,0.38,,0.0,0.0,-1000,1.0,0.0,0.0,0.0,0.0,0.0,2.0,2.0,2.0,0.0,2.0,55.0,6.0,7.0,2.0,1.0,11.0,129750.0,9.0,48.0,18.0
118,,35.045739000000005,-85.311631,2019-01-26,20:11:32,W Martin Luther King Blvd / Chestnut St,33SR316001,0.154,CHATTANOOGA,clear-night,Clear,clear-night,Clear,20,39.57,47.77,26.79,,,,26.14,0.58,1.0,5,2.59,0.44,,0.0,0.0,-1000,1.0,0.0,0.0,0.0,0.0,0.0,2.0,2.0,0.0,1.0,2.0,30.0,4.0,5.0,13.0,1.0,14.0,15100.0,11.0,24.0,18.0
119,,35.040628999999996,-85.309825,2019-01-26,20:48:56,1201 Broad St,33SR008001,8.552,CHATTANOOGA,clear-night,Clear,clear-night,Clear,20,39.6,47.82,26.82,,,,26.16,0.58,1.0,5,2.62,0.44,,0.0,0.0,-1000,1.0,0.0,0.0,0.0,0.0,0.0,2.0,2.0,0.0,1.0,2.0,30.0,4.0,4.0,13.0,1.0,14.0,8640.0,12.0,44.0,15.0
120,,34.991275,-85.280979,2019-01-26,22:17:26,3203 E 43rd St,330A911001,0.609,CHATTANOOGA,clear-night,Clear,clear-night,Clear,22,34.91,47.58,25.76,,,,26.86,0.72,1.0,5,3.36,0.42,,0.0,0.0,-1000,1.0,0.0,0.0,0.0,0.0,0.0,2.0,7.0,0.0,,2.0,,2.0,2.0,12.0,4.0,19.0,,,18.0,6.0
121,,35.068529,-85.25529,2019-01-26,22:24:20,2001 Appling St,330B501001,0.013000000000000001,CHATTANOOGA,clear-night,Clear,clear-night,Clear,22,36.21,47.8,26.75,,,,27.21,0.69,1.0,5,5.73,0.43,,0.0,0.0,-1000,1.0,0.0,0.0,0.0,0.0,0.0,2.0,7.0,0.0,1.0,2.0,,2.0,2.0,12.0,4.0,19.0,,,24.0,15.0
39,,35.029872,-85.185312,2019-01-27,00:24:17,6210 LEE HWY,330E643001,0.036,CHATTANOOGA,partly-cloudy-night,Partly Cloudy,clear-night,Clear,0,28.85,47.85,26.06,,,,17.09,0.61,1.0,6,5.94,0.39,NA,0.0,0.0,-1000,0.0,1.0,0.0,0.0,0.0,0.0,2.0,2.0,0.0,,2.0,,2.0,2.0,12.0,4.0,19.0,,,26.0,15.0
38,,35.029535,-85.18699,2019-01-27,00:31:48,Lee Hwy / Vance Rd,33SR002001,16.646,CHATTANOOGA,partly-cloudy-night,Partly Cloudy,clear-night,Clear,0,28.9,47.89,26.12,,,,17.09,0.61,1.0,6,5.93,0.39,NA,0.0,0.0,-1000,0.0,1.0,0.0,0.0,0.0,0.0,2.0,2.0,0.0,1.0,2.0,40.0,4.0,4.0,13.0,1.0,14.0,24540.0,10.0,22.0,15.0
37,,35.029872,-85.185312,2019-01-27,00:31:48,6210 LEE HWY,330E643001,0.036,CHATTANOOGA,partly-cloudy-night,Partly Cloudy,clear-night,Clear,0,28.85,47.85,26.06,,,,17.09,0.61,1.0,6,5.94,0.39,NA,0.0,0.0,-1000,0.0,1.0,0.0,0.0,0.0,0.0,2.0,2.0,0.0,,2.0,,2.0,2.0,12.0,4.0,19.0,,,26.0,15.0
36,,35.039499,-85.285149,2019-01-27,03:05:20,1100 Mccallie Ave,330A485001,0.016,CHATTANOOGA,clear-night,Clear,partly-cloudy-night,Mostly Cloudy,3,29.4,54.46,29.26,,,,27.4,0.92,1.0,6,6.27,0.45,NA,0.0,0.0,-1000,1.0,0.0,0.0,0.0,0.0,0.0,2.0,0.0,0.0,,2.0,,2.0,2.0,12.0,4.0,19.0,,,34.0,15.0
35,,35.117477,-85.0456,2019-01-27,04:03:57,1420 INTERSTATE 75 NB,33I0075001,14.167,HAMILTON COUNTY,clear-night,Clear,partly-cloudy-night,Partly Cloudy,4,29.02,53.9,29.02,,,,27.75,0.95,1.0,6,7.43,0.38,NA,0.0,0.0,-1000,1.0,0.0,0.0,0.0,0.0,0.0,2.0,0.0,2.0,0.0,2.0,65.0,4.0,4.0,2.0,1.0,11.0,62350.0,9.0,24.0,15.0
34,,35.118046,-85.132939,2019-01-27,08:45:52,Pythian Rd / Holder Rd,330D325001,0.204,HAMILTON COUNTY,partly-cloudy-day,Partly Cloudy,partly-cloudy-night,Partly Cloudy,8,30.86,53.97,29.1,,,,27.45,0.87,1.0,6,5.98,0.43,NA,0.0,0.0,-1000,0.0,1.0,0.0,0.0,0.0,0.0,2.0,7.0,0.0,,2.0,,2.0,2.0,11.0,2.0,19.0,,,16.0,15.0
32,,35.118046,-85.132939,2019-01-27,08:52:52,Pythian Rd / Holder Rd,330D325001,0.204,HAMILTON COUNTY,partly-cloudy-day,Partly Cloudy,partly-cloudy-night,Partly Cloudy,8,30.86,53.97,29.1,,,,27.45,0.87,1.0,6,5.98,0.43,NA,0.0,0.0,-1000,0.0,1.0,0.0,0.0,0.0,0.0,2.0,7.0,0.0,,2.0,,2.0,2.0,11.0,2.0,19.0,,,16.0,15.0
31,,34.995978,-85.22748,2019-01-27,11:59:35,1210 W End Ave,330B791001,0.356,EAST RIDGE,partly-cloudy-day,Partly Cloudy,partly-cloudy-night,Mostly Cloudy,11,42.31,54.42,28.9,,,,32.9,0.69,1.0,6,6.15,0.4,NA,0.0,0.0,-1000,0.0,1.0,0.0,0.0,0.0,0.0,2.0,7.0,0.0,,2.0,30.0,2.0,2.0,12.0,4.0,19.0,,,21.0,15.0
30,,35.042901,-85.222382,2019-01-27,12:09:59,Shallowford Rd / Wilcox Blvd,3303556001,3.323,CHATTANOOGA,partly-cloudy-day,Partly Cloudy,partly-cloudy-night,Mostly Cloudy,12,46.75,54.45,29.11,,,,33.72,0.6,1.0,6,6.27,0.41,NA,0.0,0.0,-1000,0.0,1.0,0.0,0.0,0.0,0.0,2.0,7.0,0.0,1.0,2.0,40.0,4.0,4.0,18.0,4.0,16.0,22270.0,13.0,24.0,15.0
29,,35.015328,-85.251282,2019-01-27,12:47:21,500-506 S Germantown Rd,330B707001,0.001,CHATTANOOGA,partly-cloudy-day,Partly Cloudy,partly-cloudy-night,Mostly Cloudy,12,46.32,54.0,28.54,,,,33.69,0.61,1.0,6,6.25,0.41,NA,0.0,0.0,-1000,0.0,1.0,0.0,0.0,0.0,0.0,2.0,0.0,0.0,,2.0,,2.0,2.0,12.0,4.0,19.0,,,16.0,15.0
28,,35.041503,-85.316563,2019-01-27,13:27:49,600 MAPLE STREET CT,330A377001,0.135,CHATTANOOGA,partly-cloudy-day,Mostly Cloudy,partly-cloudy-night,Mostly Cloudy,13,50.51,54.44,29.07,,,,33.93,0.53,1.0,6,3.16,0.46,NA,0.0,0.0,-1000,0.0,1.0,0.0,0.0,0.0,0.0,2.0,7.0,0.0,1.0,2.0,25.0,2.0,2.0,12.0,4.0,19.0,,,24.0,18.0
27,,35.091467,-85.181294,2019-01-27,13:29:46,4850 Highway 58,3303601001,2.741,CHATTANOOGA,partly-cloudy-day,Partly Cloudy,partly-cloudy-night,Mostly Cloudy,13,50.1,54.06,28.92,,,,34.09,0.54,1.0,6,6.38,0.44,NA,0.0,0.0,-1000,0.0,1.0,0.0,0.0,0.0,0.0,2.0,2.0,0.0,1.0,2.0,30.0,2.0,2.0,18.0,4.0,16.0,12180.0,11.0,22.0,15.0
26,,35.096194,-85.330718,2019-01-27,13:38:07,541 SIGNAL MOUNTAIN RD,33SR008001,13.275,CHATTANOOGA,partly-cloudy-day,Mostly Cloudy,partly-cloudy-night,Mostly Cloudy,13,50.46,54.37,29.18,,,,33.97,0.53,1.0,6,6.83,0.45,NA,0.0,0.0,-1000,0.0,1.0,0.0,0.0,0.0,0.0,2.0,2.0,0.0,1.0,2.0,45.0,6.0,6.0,13.0,1.0,14.0,27860.0,11.0,36.0,15.0
24,,35.091467,-85.181294,2019-01-27,13:42:38,4850 Highway 58,3303601001,2.741,CHATTANOOGA,partly-cloudy-day,Partly Cloudy,partly-cloudy-night,Mostly Cloudy,13,50.1,54.06,28.92,,,,34.09,0.54,1.0,6,6.38,0.44,NA,0.0,0.0,-1000,0.0,1.0,0.0,0.0,0.0,0.0,2.0,2.0,0.0,1.0,2.0,30.0,2.0,2.0,18.0,4.0,16.0,12180.0,11.0,22.0,15.0
23,,35.143885,-85.316172,2019-01-27,13:46:35,1527 E Brow Rd,3301147001,3.9,WALDEN,partly-cloudy-day,Mostly Cloudy,partly-cloudy-night,Mostly Cloudy,13,47.5,50.69,26.42,,,,33.99,0.59,1.0,6,6.76,0.45,NA,0.0,0.0,-1000,0.0,1.0,0.0,0.0,0.0,0.0,3.0,7.0,0.0,0.0,2.0,40.0,2.0,2.0,18.0,4.0,16.0,5680.0,13.0,18.0,15.0
22,,35.026388,-85.275686,2019-01-27,14:56:12,2106 E 13th St,330A516001,0.041,CHATTANOOGA,partly-cloudy-day,Mostly Cloudy,partly-cloudy-night,Mostly Cloudy,14,51.96,54.45,29.24,,,,31.87,0.46,1.0,6,6.19,0.45,NA,0.0,0.0,-1000,0.0,1.0,0.0,0.0,0.0,0.0,2.0,0.0,0.0,,2.0,,2.0,2.0,12.0,4.0,19.0,,,30.0,15.0
21,,35.082482,-85.066333,2019-01-27,15:20:49,5559 Little Debbie Pkwy,3304976001,1.513,COLLEGEDALE,partly-cloudy-day,Partly Cloudy,partly-cloudy-night,Partly Cloudy,15,53.02,53.96,28.93,,,,31.3,0.43,1.0,6,6.87,0.38,NA,0.0,0.0,-1000,0.0,1.0,0.0,0.0,0.0,0.0,2.0,2.0,0.0,,2.0,40.0,2.0,2.0,18.0,4.0,16.0,9860.0,10.0,24.0,15.0
20,,35.017457,-85.182411,2019-01-27,15:43:41,1301 Hickory Valley Rd,330B010001,0.021,CHATTANOOGA,partly-cloudy-day,Partly Cloudy,partly-cloudy-night,Partly Cloudy,15,53.16,54.19,28.81,,,,30.91,0.42,1.0,6,6.11,0.39,NA,0.0,0.0,-1000,0.0,1.0,0.0,0.0,0.0,0.0,2.0,0.0,0.0,,2.0,,1.0,1.0,12.0,4.0,19.0,,,10.0,15.0
19,,35.008709,-85.205213,2019-01-27,16:11:18,490 Greenway View Dr,330C353001,0.461,CHATTANOOGA,partly-cloudy-day,Partly Cloudy,partly-cloudy-night,Partly Cloudy,16,54.45,54.45,28.99,,,,28.92,0.37,1.0,6,6.13,0.39,NA,0.0,0.0,-1000,0.0,1.0,0.0,0.0,0.0,0.0,2.0,0.0,0.0,,2.0,,2.0,2.0,12.0,4.0,19.0,,,48.0,15.0
18,,35.137912,-85.248533,2019-01-27,16:44:10,5425 Highway 153,33SR153001,9.392,CHATTANOOGA,partly-cloudy-day,Mostly Cloudy,partly-cloudy-night,Mostly Cloudy,16,54.4,54.4,29.39,,,,28.61,0.37,1.0,6,7.0,0.44,NA,0.0,0.0,-1000,0.0,1.0,0.0,0.0,0.0,0.0,2.0,2.0,0.0,1.0,2.0,45.0,6.0,6.0,13.0,1.0,14.0,45300.0,11.0,36.0,15.0
17,,35.0357,-85.171969,2019-01-27,16:47:11,Jesse Conner Rd / Hickory Valley Rd,3303603001,1.428,CHATTANOOGA,partly-cloudy-day,Partly Cloudy,partly-cloudy-night,Partly Cloudy,16,54.28,54.28,28.96,,,,28.82,0.37,1.0,6,6.14,0.39,NA,0.0,0.0,-1000,0.0,1.0,0.0,0.0,0.0,0.0,2.0,7.0,0.0,1.0,2.0,35.0,2.0,2.0,18.0,4.0,16.0,13120.0,12.0,20.0,15.0
16,,35.085826,-85.315965,2019-01-27,16:49:59,Dayton Blvd / Hedgewood Dr,3304033001,0.002,RED BANK,partly-cloudy-day,Mostly Cloudy,partly-cloudy-night,Mostly Cloudy,16,54.26,54.26,29.08,,,,28.17,0.36,1.0,6,6.77,0.45,NA,0.0,0.0,-1000,0.0,1.0,0.0,0.0,0.0,0.0,2.0,7.0,0.0,1.0,2.0,25.0,2.0,2.0,18.0,4.0,17.0,700.0,11.0,24.0,15.0
15,,35.202891,-85.020081,2019-01-27,17:49:28,9807 OOLTEWAH GEORGETOWN RD,330E179001,2.282,HAMILTON COUNTY,partly-cloudy-day,Partly Cloudy,partly-cloudy-night,Partly Cloudy,17,52.38,53.61,28.57,,,,29.92,0.42,1.0,6,10.0,0.41,NA,0.0,0.0,-1000,0.0,1.0,0.0,0.0,0.0,0.0,2.0,0.0,0.0,,2.0,40.0,2.0,2.0,11.0,2.0,9.0,,,18.0,15.0
14,,35.198843,-85.014412,2019-01-27,17:59:26,9700 Ooltewah Georgetown Rd,3302211001,1.829,HAMILTON COUNTY,partly-cloudy-day,Partly Cloudy,partly-cloudy-night,Partly Cloudy,17,52.25,53.47,28.47,,,,29.91,0.42,1.0,6,10.0,0.41,NA,0.0,0.0,-1000,0.0,1.0,0.0,0.0,0.0,0.0,2.0,0.0,0.0,,2.0,45.0,2.0,2.0,11.0,2.0,8.0,1770.0,13.0,24.0,15.0
13,,35.011004,-85.190369,2019-01-27,18:02:30,260 INTERSTATE 75 SB,33I0075001,2.631,CHATTANOOGA,partly-cloudy-day,Mostly Cloudy,partly-cloudy-night,Partly Cloudy,18,51.19,54.33,28.92,,,,29.22,0.43,1.0,6,6.1,0.39,NA,0.0,0.0,-1000,0.0,1.0,0.0,0.0,0.0,0.0,2.0,4.0,2.0,1.0,2.0,55.0,8.0,8.0,2.0,1.0,11.0,129750.0,9.0,48.0,18.0
12,,35.008246,-85.200274,2019-01-27,18:02:43,200 INTERSTATE 75 SB,33I0075001,2.029,CHATTANOOGA,partly-cloudy-day,Mostly Cloudy,partly-cloudy-night,Partly Cloudy,18,51.28,54.42,28.97,,,,28.64,0.41,1.0,6,6.12,0.39,NA,0.0,0.0,-1000,0.0,1.0,0.0,0.0,0.0,0.0,2.0,4.0,2.0,1.0,2.0,55.0,8.0,8.0,2.0,1.0,11.0,129750.0,9.0,48.0,18.0
11,,35.3406,-85.211254,2019-01-27,18:53:34,14200 HIGHWAY 111 NB,33SR111001,6.163,HAMILTON COUNTY,partly-cloudy-night,Mostly Cloudy,partly-cloudy-night,Partly Cloudy,18,47.82,51.06,25.94,,,,30.17,0.5,1.0,6,10.0,0.42,NA,0.0,0.0,-1000,0.0,1.0,0.0,0.0,0.0,0.0,2.0,0.0,2.0,0.0,2.0,65.0,4.0,4.0,3.0,1.0,2.0,8820.0,10.0,24.0,15.0
10,,35.174533,-85.329314,2019-01-27,19:20:38,3703 TAFT HWY,33SR008001,21.499,HAMILTON COUNTY,partly-cloudy-night,Mostly Cloudy,partly-cloudy-night,Mostly Cloudy,19,40.22,49.61,25.03,,,,30.38,0.68,1.0,6,7.21,0.47,NA,0.0,0.0,-1000,0.0,1.0,0.0,0.0,0.0,0.0,2.0,0.0,0.0,1.0,2.0,45.0,2.0,2.0,21.0,1.0,16.0,7590.0,11.0,24.0,15.0
9,,35.010063,-85.207747,2019-01-27,19:23:21,GREENWAY VIEW DR / MARLIN RD,330C357001,0.001,CHATTANOOGA,partly-cloudy-night,Mostly Cloudy,partly-cloudy-night,Mostly Cloudy,19,47.22,54.46,29.0,,,,30.78,0.53,1.0,6,6.14,0.4,NA,0.0,0.0,-1000,0.0,1.0,0.0,0.0,0.0,0.0,2.0,0.0,0.0,,2.0,,4.0,2.0,12.0,4.0,19.0,,,48.0,15.0
8,,35.260274,-85.155317,2019-01-27,19:27:17,10711 Lovell Rd,3304978001,2.482,SODDY DAISY,partly-cloudy-night,Mostly Cloudy,partly-cloudy-night,Partly Cloudy,19,46.32,53.65,28.49,,,,32.11,0.57,1.0,6,10.0,0.42,NA,0.0,0.0,-1000,0.0,1.0,0.0,0.0,0.0,0.0,2.0,0.0,0.0,,2.0,35.0,2.0,2.0,18.0,4.0,18.0,390.0,13.0,18.0,15.0
7,,35.042905,-85.318581,2019-01-27,19:50:58,1300 GROVE ST,330A372001,0.009,CHATTANOOGA,partly-cloudy-night,Mostly Cloudy,partly-cloudy-night,Mostly Cloudy,19,47.41,54.44,29.07,,,,30.13,0.51,1.0,6,3.16,0.46,NA,0.0,0.0,-1000,0.0,1.0,0.0,0.0,0.0,0.0,2.0,7.0,0.0,1.0,2.0,15.0,2.0,2.0,12.0,4.0,19.0,,,17.0,15.0
6,,35.062707,-85.250292,2019-01-27,21:10:39,2300 N CHAMBERLAIN AVE,3304418001,2.403,CHATTANOOGA,partly-cloudy-night,Mostly Cloudy,partly-cloudy-night,Mostly Cloudy,21,42.55,54.14,29.03,,,,30.08,0.61,1.0,6,5.72,0.45,NA,0.0,0.0,-1000,0.0,1.0,0.0,0.0,0.0,0.0,2.0,4.0,0.0,1.0,2.0,35.0,2.0,2.0,18.0,4.0,16.0,6740.0,11.0,34.0,15.0
5,,35.062769,-85.250743,2019-01-27,21:11:34,2217 N Chamberlain Ave,330B486001,0.011,CHATTANOOGA,partly-cloudy-night,Mostly Cloudy,partly-cloudy-night,Mostly Cloudy,21,42.57,54.16,29.05,,,,30.08,0.61,1.0,6,5.72,0.45,NA,0.0,0.0,-1000,0.0,1.0,0.0,0.0,0.0,0.0,2.0,0.0,0.0,,2.0,,2.0,2.0,12.0,4.0,19.0,,,28.0,15.0
4,,35.061964,-85.249864,2019-01-27,21:11:34,2200 N CHAMBERLAIN AVE,3304418001,2.368,CHATTANOOGA,partly-cloudy-night,Mostly Cloudy,partly-cloudy-night,Mostly Cloudy,21,42.48,54.08,28.97,,,,30.08,0.61,1.0,6,5.72,0.45,NA,0.0,0.0,-1000,0.0,1.0,0.0,0.0,0.0,0.0,2.0,4.0,0.0,1.0,2.0,35.0,2.0,2.0,18.0,4.0,16.0,6740.0,11.0,34.0,15.0
3,,35.060974,-85.251442,2019-01-27,21:13:11,2200 - 2299 N Chamberlain Ave,330B463001,0.004,CHATTANOOGA,partly-cloudy-night,Mostly Cloudy,partly-cloudy-night,Mostly Cloudy,21,42.5,54.09,28.98,,,,30.09,0.61,1.0,6,5.71,0.45,NA,0.0,0.0,-1000,0.0,1.0,0.0,0.0,0.0,0.0,2.0,7.0,0.0,,2.0,,2.0,2.0,12.0,4.0,19.0,,,16.0,15.0
2,,35.061964,-85.249864,2019-01-27,21:13:47,2200 N CHAMBERLAIN AVE,3304418001,2.368,CHATTANOOGA,partly-cloudy-night,Mostly Cloudy,partly-cloudy-night,Mostly Cloudy,21,42.48,54.08,28.97,,,,30.08,0.61,1.0,6,5.72,0.45,NA,0.0,0.0,-1000,0.0,1.0,0.0,0.0,0.0,0.0,2.0,4.0,0.0,1.0,2.0,35.0,2.0,2.0,18.0,4.0,16.0,6740.0,11.0,34.0,15.0
1,,35.060974,-85.251442,2019-01-27,21:13:47,2200 - 2299 N Chamberlain Ave,330B463001,0.004,CHATTANOOGA,partly-cloudy-night,Mostly Cloudy,partly-cloudy-night,Mostly Cloudy,21,42.5,54.09,28.98,,,,30.09,0.61,1.0,6,5.71,0.45,NA,0.0,0.0,-1000,0.0,1.0,0.0,0.0,0.0,0.0,2.0,7.0,0.0,,2.0,,2.0,2.0,12.0,4.0,19.0,,,16.0,15.0
0,,35.174728,-85.272803,2019-01-27,22:33:11,6027 LEVI RD,330C176001,0.239,HAMILTON COUNTY,partly-cloudy-night,Partly Cloudy,partly-cloudy-night,Mostly Cloudy,22,39.31,53.62,29.06,,,,30.41,0.7,1.0,6,7.23,0.44,NA,0.0,0.0,-1000,0.0,1.0,0.0,0.0,0.0,0.0,2.0,0.0,0.0,,2.0,,2.0,2.0,11.0,2.0,19.0,,,20.0,15.0
